name,lon,has_kiosk,station_id,eightd_station_services,station_type,lat,region_id,capacity_original,zipCode,capacity_zip_sum
W 52 St & 11 Ave,-73.99392888,True,72,[],classic,40.76727216,71,55,10019,1510
Grand Army Plaza & Central Park S,-73.97371465,True,281,[],classic,40.7643971,71,96,10019,1510
W 56 St & 6 Ave,-73.97722479,True,352,[],classic,40.76340613,71,36,10019,1510
W 59 St & 10 Ave,-73.988038,True,422,[],classic,40.770513,71,115,10019,1510
W 54 St & 9 Ave,-73.98690506,True,423,[],classic,40.76584941,71,44,10019,1510
8 Ave & W 52 St,-73.9851615,True,447,[],classic,40.76370739,71,31,10019,1510
W 49 St & 8 Ave,-73.98788205,True,450,[],classic,40.76227205,71,67,10019,1510
Broadway & W 58 St,-73.98169333,True,457,[],classic,40.76695317,71,79,10019,1510
Broadway & W 56 St,-73.98192338,True,468,[],classic,40.7652654,71,79,10019,1510
Broadway & W 53 St,-73.98268129,True,469,[],classic,40.76344058,71,85,10019,1510
W 53 St & 10 Ave,-73.99061728,True,480,[],classic,40.76669671,71,29,10019,1510
Broadway & W 51 St,-73.98336183,True,500,[],classic,40.76228826,71,78,10019,1510
W 56 St & 10 Ave,-73.988639,True,513,[],classic,40.768254,71,29,10019,1510
11 Ave & W 59 St,-73.99046033620834,True,530,[],classic,40.77149671054441,71,24,10019,1510
Central Park S & 6 Ave,-73.97634151,True,2006,[],classic,40.76590936,71,73,10019,1510
5 Ave & E 63 St,-73.971518,True,3136,[],classic,40.766368,71,51,10019,1510
W 52 St & 6 Ave,-73.97982001304626,True,3443,[],classic,40.76132983124814,71,59,10019,1510
W 50 St & 9 Ave,-73.98917958140373,True,3699,[],classic,40.763604677958625,71,30,10019,1510
7 Ave & Central Park South,-73.9790689945221,True,3724,[],classic,40.7667405590595,71,81,10019,1510
W 55 St & 6 Ave,-73.978434,True,3809,[],classic,40.763189,71,77,10019,1510
W 50 St & 10 Ave,-73.99194359779358,True,4235,[],classic,40.764734200065185,71,55,10019,1510
W 54 St & 11 Ave,-73.992573,True,4236,[],classic,40.768333,71,59,10019,1510
Broadway	& W 48 St,-73.98486793041229,True,4642,[],classic,40.76017739537783,71,71,10019,1510
8 Ave & W 49 St,-73.98655101656914,True,4651,[],classic,40.76171227910671,71,57,10019,1510
W 56 St & 8 Ave,-73.98313522338867,True,4712,[],classic,40.765959181657976,71,50,10019,1510
Franklin St & W Broadway,-74.00666661,True,79,[],classic,40.71911552,71,33,10013,978
Hudson St & Reade St,-74.0091059,True,146,[],classic,40.71625008,71,55,10013,978
Laight St & Hudson St,-74.00771779,True,248,[],classic,40.72185379,71,91,10013,978
Harrison St & Hudson St,-74.0090009,True,249,[],classic,40.71870987,71,27,10013,978
Lispenard St & Broadway,-74.00247214,True,257,[],classic,40.71939226,71,70,10013,978
Howard St & Lafayette St,-73.99973337,True,268,[],classic,40.71910537,71,27,10013,978
Leonard St & Church St,-74.005549,True,320,[],classic,40.717571,71,54,10013,978
Watts St & Greenwich St,-74.00965965,True,328,[],classic,40.72405549,71,35,10013,978
Bayard St & Baxter St,-73.99974372,True,355,[],classic,40.71602118,71,43,10013,978
6 Ave & Canal St,-74.00566443,True,377,[],classic,40.72243797,71,49,10013,978
Grand St & Greene St,-74.00238141417502,True,2010,[],classic,40.72170005235607,71,43,10013,978
Grand St & Elizabeth St,-73.99596,True,3435,[],classic,40.718822,71,44,10013,978
Greenwich St & Hubert St,-74.010065,True,3436,[],classic,40.721319,71,35,10013,978
North Moore St & Greenwich St,-74.0103006362915,True,3664,[],classic,40.72019521437465,71,29,10013,978
6 Ave & Broome St,-74.00473,True,3746,[],classic,40.72431,71,48,10013,978
Spring St & Hudson St,-74.0076532959938,True,4214,[],classic,40.72583996792375,71,43,10013,978
Duane St & Hudson St,-74.00925,True,4407,[],classic,40.71703,71,44,10013,978
Washington St & Laight St,-74.0106,True,4691,[],classic,40.72231,71,43,10013,978
West Broadway & Watts St,-74.00314,True,4714,[],classic,40.72323,71,35,10013,978
6 Ave & Walker St,-74.0052238852195,True,4715,[],classic,40.7197920901383,71,39,10013,978
Walker St & Baxter St,-73.999573,True,4737,[],classic,40.717411,71,47,10013,978
N Moore St & Hudson St,-74.00844320654869,True,4749,[],classic,40.71996118117138,71,44,10013,978
St James Pl & Pearl St,-74.00016545,True,82,[],classic,40.71117416,71,27,10038,477
Spruce St & Nassau St,-74.00552427,True,224,[],classic,40.71146364,71,34,10038,477
Maiden Ln & Pearl St,-74.00731853,True,264,[],classic,40.70706456,71,29,10038,477
St James Pl & Oliver St,-73.99851193,True,308,[],classic,40.71307916,71,48,10038,477
Fulton St & William St,-74.00655090808868,True,316,[],classic,40.70960089363537,71,43,10038,477
John St & William St,-74.00722156,True,376,[],classic,40.70862144,71,43,10038,477
Catherine St & Monroe St,-73.99682619,True,2009,[],classic,40.71117444,71,35,10038,477
Cliff St & Fulton St,-74.00495,True,3783,[],classic,40.70838,71,65,10038,477
Pearl St & Peck Slip,-74.002751,True,3916,[],classic,40.708485,71,45,10038,477
Spruce St & Gold St,-74.0043228,True,4218,[],classic,40.7103231,71,55,10038,477
Water St &  Fletcher St,-74.00559738278389,True,4710,[],classic,40.706410755236135,71,53,10038,477
Atlantic Ave & Fort Greene Pl,-73.97632328,True,83,[],classic,40.68382604,71,62,11217,760
3 Ave & Schermerhorn St,-73.9796772,True,298,[],classic,40.68683208,71,35,11217,760
S Portland Ave & Hanson Pl,-73.97431458,True,353,[],classic,40.68539567,71,27,11217,760
Degraw St & Hoyt St,-73.99079024791718,True,3332,[],classic,40.681990442707026,71,27,11217,760
Berkeley Pl & 6 Ave,-73.97846879,True,3339,[],classic,40.6765304,71,41,11217,760
Berkeley Pl & 7 Ave,-73.97523209452629,True,3346,[],classic,40.675146838709786,71,29,11217,760
Dean St & Hoyt St,-73.98759104,True,3410,[],classic,40.6864442,71,77,11217,760
Bond St & Bergen St,-73.98620772,True,3411,[],classic,40.6849668,71,27,11217,760
Pacific St & Nevins St,-73.98302136,True,3412,[],classic,40.6853761,71,18,11217,760
Bergen St & Flatbush Ave,-73.97567331790923,True,3414,[],classic,40.680944723477296,71,33,11217,760
Prospect Pl & 6 Ave,-73.97519523,True,3415,[],classic,40.6793307,71,25,11217,760
7 Ave & Park Pl,-73.97324283,True,3416,[],classic,40.6776147,71,25,11217,760
Douglass St & 4 Ave,-73.98154004,True,3419,[],classic,40.6792788,71,51,11217,760
Douglass St & 3 Ave,-73.98432695,True,3420,[],classic,40.6802133,71,35,11217,760
Hoyt St & Warren St,-73.98901629,True,3421,[],classic,40.6843549,71,35,11217,760
Hanson Pl & Ashland Pl,-73.97790759801863,True,3429,[],classic,40.68506807308177,71,39,11217,760
Wyckoff St & Nevins St,-73.984275,True,3911,[],classic,40.683426,71,22,11217,760
Bergen St & 4 Ave,-73.9798977971077,True,4431,[],classic,40.68256425759694,71,34,11217,760
St Marks Pl & 4 Ave,-73.97988975048065,True,4476,[],classic,40.68177810928762,71,27,11217,760
Nevins St & Schermerhorn St,-73.98176059126854,True,4663,[],classic,40.68737247650719,71,28,11217,760
Lafayette Ave & Ft Greene Pl,-73.97664964199066,True,4665,[],classic,40.68700231292619,71,36,11217,760
Sterling Pl & 5 Ave,-73.97855266928671,True,4685,[],classic,40.678970070475735,71,27,11217,760
Park Ave & St Edwards St,-73.97803415,True,119,[],classic,40.69608941,71,53,11205,600
Carlton Ave & Flushing Ave,-73.973736,True,242,[],classic,40.697787,71,0,11205,600
Willoughby Ave & Hall St,-73.96536851,True,244,[],classic,40.69196035,71,51,11205,600
DeKalb Ave & Vanderbilt Ave,-73.96885458,True,258,[],classic,40.68940747,71,23,11205,600
Adelphi St & Myrtle Ave,-73.97178913,True,270,[],classic,40.69308257,71,28,11205,600
Washington Ave & Park Ave,-73.96751037,True,313,[],classic,40.69610226,71,55,11205,600
Clinton Ave & Flushing Ave,-73.96986848,True,343,[],classic,40.69794,71,23,11205,600
Emerson Pl & Myrtle Ave,-73.96223558,True,354,[],classic,40.69363137,71,63,11205,600
Lafayette Ave & Classon Ave,-73.96023854,True,364,[],classic,40.68900443,71,27,11205,600
Clinton Ave & Myrtle Ave,-73.968896,True,366,[],classic,40.693261,71,33,11205,600
Franklin Ave & Myrtle Ave,-73.95801365375519,True,372,[],classic,40.694546087246025,71,27,11205,600
Willoughby Ave & Walworth St,-73.95381995,True,373,[],classic,40.69331716,71,19,11205,600
Lafayette Ave & St James Pl,-73.9647628,True,399,[],classic,40.68851534,71,39,11205,600
Cumberland St & Lafayette Ave,-73.97265183,True,416,[],classic,40.68753406,71,31,11205,600
Carlton Ave & Park Ave,-73.97355569,True,419,[],classic,40.69580705,71,0,11205,600
Clermont Ave & Park Ave,-73.97129668,True,421,[],classic,40.69573398,71,19,11205,600
Kosciuszko St & Nostrand Ave,-73.95133465,True,3056,[],classic,40.69072549,71,23,11205,600
Flushing Ave & Vanderbilt Ave,-73.97077560424805,True,3648,[],classic,40.697950315695444,71,25,11205,600
5 St & Market St,-73.97440128028393,True,3692,[],classic,40.699997484388504,71,39,11205,600
Dock 72 Way & Market St,-73.97141,True,3787,[],classic,40.69985,71,22,11205,600
Lexington Ave & Classon Ave,-73.95928168,True,120,[],classic,40.68676793,71,19,11238,817
Washington Ave & Greene Ave,-73.96563307,True,275,[],classic,40.68650065,71,19,11238,817
Monroe St & Classon Ave,-73.95881081,True,289,[],classic,40.6845683,71,19,11238,817
Lefferts Pl & Franklin Ave,-73.9557689392,True,396,[],classic,40.680342423,71,25,11238,817
Fulton St & Clermont Ave,-73.96922273,True,397,[],classic,40.68415748,71,75,11238,817
Clermont Ave & Lafayette Ave,-73.96968902,True,420,[],classic,40.68764484,71,51,11238,817
Cambridge Pl & Gates Ave,-73.96304,True,3049,[],classic,40.68488,71,18,11238,817
Grand Army Plaza & Plaza St West,-73.97087984,True,3349,[],classic,40.6729679,71,39,11238,817
Plaza St West & Flatbush Ave,-73.97111473,True,3418,[],classic,40.6750207,71,33,11238,817
Carlton Ave & Dean St,-73.9710097,True,3537,[],classic,40.6809741,71,29,11238,817
Underhill Ave & Pacific St,-73.9646795,True,3544,[],classic,40.6804836,71,27,11238,817
Pacific St & Classon Ave,-73.9587903,True,3546,[],classic,40.6791944,71,21,11238,817
Grand Ave & Bergen St,-73.962408,True,3549,[],classic,40.678045,71,25,11238,817
Bergen St & Vanderbilt Ave,-73.9680438,True,3558,[],classic,40.6794388,71,27,11238,817
Classon Ave & St Marks Ave,-73.9596082,True,3562,[],classic,40.6765198,71,27,11238,817
Franklin Ave & St Marks Ave,-73.9561677,True,3569,[],classic,40.6758324,71,29,11238,817
Prospect Pl & Underhill Ave,-73.96579,True,3574,[],classic,40.6769694,71,23,11238,817
St Johns Pl & Washington Ave,-73.9631611,True,3580,[],classic,40.6737236,71,30,11238,817
Underhill Ave & Lincoln Pl,-73.9671457,True,3581,[],classic,40.6740123,71,27,11238,817
Lincoln Pl & Classon Ave,-73.9609,True,3582,[],classic,40.6721683,71,28,11238,817
Eastern Pkwy & Washington Ave,-73.9631145,True,3583,[],classic,40.6716493,71,31,11238,817
Fulton St & Waverly Ave,-73.96599590778351,True,3637,[],classic,40.683238654603414,71,31,11238,817
Dean St & Franklin Ave,-73.955637216568,True,3673,[],classic,40.67759206937376,71,21,11238,817
DeKalb Ave & Franklin Ave,-73.95746178925037,True,3755,[],classic,40.69064807082943,71,19,11238,817
Fulton St & Irving Pl,-73.959432,True,3789,[],classic,40.68186,71,31,11238,817
Plaza St East & Flatbush Ave,-73.969106,True,4504,[],classic,40.673134,71,63,11238,817
Prospect Pl & Vanderbilt Ave,-73.96902143955231,True,4618,[],classic,40.67767534269111,71,0,11238,817
Flatbush Ave & Eastern Pkwy,-73.966438,True,4657,[],classic,40.668757,71,30,11238,817
Barrow St & Hudson St,-74.00674436,True,127,[],classic,40.73172428,71,31,10014,907
MacDougal St & Prince St,-74.00297088,True,128,[],classic,40.72710258,71,56,10014,907
Bank St & Washington St,-74.00859207,True,238,[],classic,40.7361967,71,31,10014,907
Perry St & Bleecker St,-74.00483091,True,247,[],classic,40.73535398,71,59,10014,907
Bank St & Hudson St,-74.00618026,True,346,[],classic,40.73652889,71,27,10014,907
Greenwich St & W Houston St,-74.008591,True,347,[],classic,40.728846,71,54,10014,907
Christopher St & Greenwich St,-74.00711384,True,358,[],classic,40.73291553,71,50,10014,907
Carmine St & 6 Ave,-74.00214988,True,368,[],classic,40.73038599,71,47,10014,907
W 4 St & 7 Ave S,-74.00293877,True,380,[],classic,40.73401143,71,42,10014,907
Washington St & Gansevoort St,-74.008119,True,405,[],classic,40.739323,71,51,10014,907
Pier 40 - Hudson River Park,-74.01129573583603,True,3256,[],classic,40.7277140777778,71,23,10014,907
Gansevoort St & Hudson St,-74.00507032871246,True,3686,[],classic,40.739448201304036,71,39,10014,907
Perry St & Greenwich Ave,-74.000939,True,3739,[],classic,40.735918,71,37,10014,907
Hudson St & W 13 St,-74.0052741765976,True,4215,[],classic,40.74005708567285,71,28,10014,907
10 Ave & W 14 St,-74.00831580162048,True,4216,[],classic,40.741981599940225,71,55,10014,907
W 10 St & Washington St,-74.00851495563984,True,4280,[],classic,40.73342399437081,71,46,10014,907
Morton St & Washington St,-74.00887,True,4281,[],classic,40.73115,71,31,10014,907
Washington St & Barrow St,-74.008769094944,True,4282,[],classic,40.73191132323174,71,39,10014,907
Greenwich St & Perry St,-74.00697,True,4297,[],classic,40.73498,71,31,10014,907
King St & Varick St,-74.00536268949507,True,4298,[],classic,40.72789701409023,71,26,10014,907
7 Ave S & Bleecker St,-74.00363802909851,True,4693,[],classic,40.73213896287381,71,59,10014,907
W 12 St & Hudson St,-74.00558933615685,True,4711,[],classic,40.73752993301071,71,45,10014,907
Clinton St & Joralemon St,-73.99337909,True,143,[],classic,40.69239502,71,50,11201,2152
Nassau St & Navy St,-73.98068914,True,144,[],classic,40.69839895,71,58,11201,2152
Henry St & Atlantic Ave,-73.99612349,True,157,[],classic,40.69089272,71,23,11201,2152
Columbia Heights & Cranberry St,-73.99548059,True,216,[],classic,40.70037867,71,37,11201,2152
Old Fulton St,-73.99383605,True,217,[],classic,40.70277159,71,39,11201,2152
Cadman Plaza E & Tillary St,-73.99014892,True,232,[],classic,40.69597683,71,52,11201,2152
Willoughby St & Fleet St,-73.9813018,True,239,[],classic,40.69196566,71,62,11201,2152
DeKalb Ave & S Portland Ave,-73.97493121,True,241,[],classic,40.68981035,71,23,11201,2152
Myrtle Ave & St Edwards St,-73.97703874,True,245,[],classic,40.69327018,71,56,11201,2152
Johnson St & Gold St,-73.98362464,True,261,[],classic,40.69474881,71,41,11201,2152
Washington Park,-73.9737299,True,262,[],classic,40.6917823,71,24,11201,2152
Concord St & Bridge St,-73.98476437,True,278,[],classic,40.69766564,71,19,11201,2152
Cadman Plaza E & Red Cross Pl,-73.98971773,True,321,[],classic,40.69991755,71,39,11201,2152
Lawrence St & Willoughby St,-73.98631746,True,323,[],classic,40.69236178,71,39,11201,2152
DeKalb Ave & Hudson Ave,-73.981013,True,324,[],classic,40.689888,71,74,11201,2152
Duffield St & Willoughby St,-73.9842844,True,390,[],classic,40.69221589,71,48,11201,2152
Clark St & Henry St,-73.99344559,True,391,[],classic,40.69760127,71,39,11201,2152
Jay St & Tech Pl,-73.987167,True,392,[],classic,40.695065,71,35,11201,2152
Atlantic Ave & Furman St,-73.9999786,True,398,[],classic,40.69165183,71,37,11201,2152
Hicks St & Montague St,-73.99595065,True,406,[],classic,40.69512845,71,20,11201,2152
Front St & Gold St,-73.982578,True,418,[],classic,40.70224,71,37,11201,2152
Front St & Washington St,-73.98940236,True,2000,[],classic,40.70255088,71,57,11201,2152
Bond St & Fulton St,-73.98304268717766,True,3232,[],classic,40.68962188790333,71,47,11201,2152
Schermerhorn St & Court St,-73.99183362722397,True,3242,[],classic,40.69102925677968,71,59,11201,2152
Montague St & Clinton St,-73.9923272,True,3246,[],classic,40.6942715,71,49,11201,2152
Warren St & Court St,-73.99383324,True,3298,[],classic,40.686371,71,31,11201,2152
Kane St & Clinton St,-73.99645295,True,3308,[],classic,40.6861758,71,11,11201,2152
Columbia St & Kane St,-74.0016256,True,3311,[],classic,40.68763155,71,20,11201,2152
Court St & State St,-73.99203074,True,3402,[],classic,40.6902375,71,32,11201,2152
Bergen St & Smith St,-73.99063168,True,3409,[],classic,40.6867443,71,48,11201,2152
Columbia St & Degraw St,-74.00242364,True,3422,[],classic,40.6859296,71,21,11201,2152
Fulton St & Adams St,-73.98949474096298,True,3440,[],classic,40.692418292578466,71,47,11201,2152
Schermerhorn St & Bond St,-73.98451656103134,True,3486,[],classic,40.688417427540834,71,40,11201,2152
Jay St & York St,-73.98672670125961,True,3674,[],classic,40.701403172577244,71,27,11201,2152
Pierrepont St & Monroe Pl,-73.99344027042389,True,3728,[],classic,40.69535693320225,71,24,11201,2152
Brooklyn Bridge Park - Pier 2,-73.997178,True,3782,[],classic,40.698458,71,31,11201,2152
Henry St & Middagh St,-73.991581,True,3790,[],classic,40.7003,71,37,11201,2152
Front St & Jay St,-73.986842,True,3804,[],classic,40.702461,71,24,11201,2152
Sands St Gate,-73.979827,True,3913,[],classic,40.699569,71,19,11201,2152
Willoughby St & Ashland Pl,-73.97877,True,3917,[],classic,40.69178,71,31,11201,2152
Clinton St & Tillary St,-73.99142056703568,True,4225,[],classic,40.696232971293156,71,33,11201,2152
Congress St & Hicks St,-73.9995126,True,4480,[],classic,40.6893952,71,35,11201,2152
Warren St & Smith St,-73.99127773940563,True,4482,[],classic,40.685424009970184,71,33,11201,2152
Bridge St & Water St,-73.98469090461731,True,4590,[],classic,40.702969341552716,71,47,11201,2152
Dock St & Front St,-73.99253,True,4591,[],classic,40.702709,71,29,11201,2152
Sands St & Jay St,-73.9862,True,4592,[],classic,40.700119,71,48,11201,2152
Myrtle Ave & Fleet Pl,-73.981909,True,4593,[],classic,40.693534,71,47,11201,2152
Ashland Pl & Dekalb Ave,-73.978776,True,4594,[],classic,40.690065,71,47,11201,2152
Henry St & Remsen St,-73.99465128779411,True,4595,[],classic,40.69400964865994,71,24,11201,2152
Boerum Pl	& Pacific St,-73.99116039276123,True,4596,[],classic,40.68848905639242,71,47,11201,2152
Nassau St	& Duffield St,-73.98384,True,4598,[],classic,40.698477,71,53,11201,2152
Adams St & Prospect St,-73.98869812488556,True,4602,[],classic,40.700763083261506,71,59,11201,2152
Congress St & Clinton St,-73.99545192718506,True,4620,[],classic,40.68825516598005,71,44,11201,2152
Bridge St & York St,-73.98471236228943,True,4625,[],classic,40.70133448066992,71,54,11201,2152
Water St & Main St,-73.990409,True,4632,[],classic,40.703212,71,45,11201,2152
State St & Smith St,-73.9886,True,4677,[],classic,40.68917,71,0,11201,2152
E 2 St & Avenue C,-73.98085795,True,150,[],classic,40.7208736,71,56,10009,1248
Ave D & E 8 St,-73.97574813,True,266,[],classic,40.72368361,71,30,10009,1248
E 2 St & Avenue B,-73.98368779,True,301,[],classic,40.72217444,71,58,10009,1248
Avenue D & E 3 St,-73.97793172,True,302,[],classic,40.72082834,71,37,10009,1248
E 6 St & Avenue B,-73.98185424,True,317,[],classic,40.72453734,71,67,10009,1248
Avenue D & E 12 St,-73.97422494,True,339,[],classic,40.72580614,71,41,10009,1248
E 5 St & Avenue C,-73.97995466,True,393,[],classic,40.72299208,71,37,10009,1248
E 9 St & Avenue C,-73.97768752,True,394,[],classic,40.72521311,71,34,10009,1248
E 6 St & Avenue D,-73.97668709,True,411,[],classic,40.72228087,71,31,10009,1248
E 7 St & Avenue A,-73.98379855,True,432,[],classic,40.72621788,71,31,10009,1248
E 10 St & Avenue A,-73.98142006,True,445,[],classic,40.72740794,71,107,10009,1248
1 Ave & E 16 St,-73.98165557,True,504,[],classic,40.73221853,71,54,10009,1248
E 14 St & Avenue B,-73.97772429,True,511,[],classic,40.72938685,71,31,10009,1248
1 Ave & E 18 St,-73.98054420948029,True,2003,[],classic,40.733812191966315,71,54,10009,1248
E 2 St & Avenue A,-73.98583620786667,True,3656,[],classic,40.72307749068673,71,46,10009,1248
E 13 St & Avenue A,-73.98067966103554,True,3711,[],classic,40.72966729392978,71,62,10009,1248
E 11 St & Avenue B,-73.97950418293476,True,3718,[],classic,40.72746420692392,71,46,10009,1248
Avenue C & E 18 St,-73.973984,True,3733,[],classic,40.730563,71,46,10009,1248
E 12 St & Ave C,-73.976831,True,3736,[],classic,40.727243,71,41,10009,1248
Avenue D & E 10 St,-73.97515833377838,True,4110,[],classic,40.72506551015475,71,30,10009,1248
1 Ave & E 6 St,-73.98616880178452,True,4478,[],classic,40.72633085971696,71,64,10009,1248
E 4 St & Ave B,-73.98265913128853,True,4698,[],classic,40.723346832180155,71,24,10009,1248
E 7 St & Ave B,-73.98131668567657,True,4699,[],classic,40.7251285241158,71,47,10009,1248
E 7 St & Ave C,-73.97901266813278,True,4700,[],classic,40.72412944090093,71,38,10009,1248
Ave A & E 11 St,-73.98175925016403,True,4701,[],classic,40.72854745023944,71,47,10009,1248
Ave A & E 14 St,-73.98047178983688,True,4702,[],classic,40.73031071000895,71,41,10009,1248
E 5 St & Ave A,-73.98430064320564,True,4704,[],classic,40.72479007746337,71,48,10009,1248
Cleveland Pl & Spring St,-73.99724900722504,True,151,[],classic,40.722103786686034,71,32,10012,588
LaGuardia Pl & W 3 St,-73.99810231,True,161,[],classic,40.72917025,71,35,10012,588
Great Jones St,-73.99379025,True,229,[],classic,40.72743423,71,23,10012,588
Lafayette St & Jersey St,-73.99565293,True,250,[],classic,40.72456089,71,40,10012,588
Mott St & Prince St,-73.99480012,True,251,[],classic,40.72317958,71,27,10012,588
Mercer St & Spring St,-73.99949601,True,303,[],classic,40.72362738,71,67,10012,588
Sullivan St & Washington Sq,-73.99906065,True,336,[],classic,40.73047747,71,57,10012,588
Mercer St & Bleecker St,-73.99662137031554,True,3260,[],classic,40.72706363348306,71,45,10012,588
W Broadway & Spring St,-74.00165855884552,True,3467,[],classic,40.72494672359416,71,46,10012,588
Thompson St & Bleecker St,-73.99968780577183,True,3705,[],classic,40.72840059450829,71,41,10012,588
W Broadway & W Houston St,-74.000472,True,3740,[],classic,40.726378,71,50,10012,588
Bleecker St & Crosby St,-73.99510189890862,True,4300,[],classic,40.72615604980408,71,43,10012,588
Kenmare St & Elizabeth St,-73.9949,True,4708,[],classic,40.72054,71,37,10012,588
Greene St & Prince St,-73.99930492043495,True,4709,[],classic,40.72511734422387,71,45,10012,588
Warren St & W Broadway,-74.00910627,True,152,[],classic,40.71473993,71,49,10007,428
Fulton St & Broadway,-74.009447,True,319,[],classic,40.711066,71,33,10007,428
Reade St & Broadway,-74.00562789,True,330,[],classic,40.71450451,71,42,10007,428
Centre St & Worth St,-74.00234482,True,386,[],classic,40.71494807,71,82,10007,428
Centre St & Chambers St,-74.0046073,True,387,[],classic,40.71273266,71,39,10007,428
Barclay St & Church St,-74.01020234,True,417,[],classic,40.71291224,71,25,10007,428
Murray St & Greenwich St,-74.01122331619263,True,3461,[],classic,40.714851505262516,71,33,10007,428
Park Pl & Church St,-74.00935515761375,True,3690,[],classic,40.71334184275907,71,36,10007,428
Vesey St & Church St,-74.01047229766846,True,4648,[],classic,40.71221958009051,71,48,10007,428
Murray St	& West St,-74.01246,True,4754,[],classic,40.71503,71,41,10007,428
E 40 St & 5 Ave,-73.9816324043,True,153,[],classic,40.752062307,71,63,10016,948
E 25 St & 1 Ave,-73.97738662,True,174,[],classic,40.7381765,71,35,10016,948
E 32 St & Park Ave,-73.98194829,True,472,[],classic,40.7457121,71,55,10016,948
5 Ave & E 29 St,-73.98683077,True,474,[],classic,40.7451677,71,56,10016,948
E 31 St & 3 Ave,-73.97966069,True,476,[],classic,40.74394314,71,65,10016,948
FDR Drive & E 35 St,-73.97121214,True,501,[],classic,40.744219,71,83,10016,948
E 33 St & 5 Ave,-73.98490707,True,526,[],classic,40.74765947,71,40,10016,948
2 Ave & E 31 St,-73.97706058,True,528,[],classic,40.74290902,71,39,10016,948
1 Ave & E 30 St,-73.97536082,True,536,[],classic,40.74144387,71,29,10016,948
Lexington Ave & E 29 St,-73.98215353488922,True,540,[],classic,40.74311555376486,71,54,10016,948
E 30 St & Park Ave S,-73.98303529,True,546,[],classic,40.74444921,71,45,10016,948
E 27 St & 1 Ave,-73.976806,True,2012,[],classic,40.739445,71,41,10016,948
E 33 St & 1 Ave,-73.97449783980846,True,3687,[],classic,40.74322681432173,71,83,10016,948
Lexington Ave & E 36 St,-73.9788007736206,True,3749,[],classic,40.747573958954796,71,23,10016,948
E 39 St & Lexington Ave,-73.97729203113158,True,4120,[],classic,40.749498546025194,71,43,10016,948
1 Ave & E 39 St,-73.97113,True,4121,[],classic,40.74714,71,53,10016,948
2 Ave & E 29 St,-73.97809267044067,True,4233,[],classic,40.741723510974715,71,0,10016,948
E 39 St & 2 Ave,-73.973827958107,True,4643,[],classic,40.748033194287665,71,52,10016,948
E 35 St & Madison Ave,-73.98255586624146,True,4720,[],classic,40.74848023448579,71,50,10016,948
E 26 St & 3 Ave,-73.98160636425018,True,4726,[],classic,40.74069317733043,71,39,10016,948
E 47 St & 2 Ave,-73.97032517,True,164,[],classic,40.75323098,71,77,10017,538
E 48 St & 3 Ave,-73.971878855,True,228,[],classic,40.7546011026,71,78,10017,538
E 45 St & 3 Ave,-73.97282625,True,440,[],classic,40.75255434,71,32,10017,538
1 Ave & E 44 St,-73.96905301,True,455,[],classic,40.75001986,71,59,10017,538
E 47 St & 1 Ave,-73.96784384,True,516,[],classic,40.75206862,71,48,10017,538
E 48 St & 5 Ave,-73.97805914282799,True,3233,[],classic,40.75724567911726,71,22,10017,538
E 41 St & Madison Ave (SW corner),-73.97992193698882,True,3235,[],classic,40.752165280621966,71,34,10017,538
E 44 St & 2 Ave,-73.97138714790344,True,3462,[],classic,40.75118387463277,71,39,10017,538
E 40 St & Park Ave,-73.978326,True,4675,[],classic,40.750756,71,87,10017,538
E 41 St & Madison Ave (SE corner),-73.979635,True,4676,[],classic,40.752049,71,62,10017,538
W 18 St & 6 Ave,-73.99456405,True,168,[],classic,40.73971301,71,47,10011,1176
W 16 St & The High Line,-74.00681753,True,212,[],classic,40.74334935,71,60,10011,1176
W 13 St & 7 Ave,-73.99994661,True,223,[],classic,40.73781509,71,33,10011,1176
MacDougal St & Washington Sq,-73.99852205,True,252,[],classic,40.73226398,71,33,10011,1176
W 11 St & 6 Ave,-73.99800419,True,254,[],classic,40.73532427,71,47,10011,1176
Greenwich Ave & 8 Ave,-74.0026376103,True,284,[],classic,40.7390169121,71,51,10011,1176
W 20 St & 7 Ave,-73.99726235,True,334,[],classic,40.74238787,71,44,10011,1176
Washington Pl & 6 Ave,-74.00026394,True,369,[],classic,40.73224119,71,76,10011,1176
Greenwich Ave & Charles St,-74.000271,True,383,[],classic,40.735238,71,39,10011,1176
9 Ave & W 18 St,-74.00366443,True,434,[],classic,40.74317449,71,60,10011,1176
W 21 St & 6 Ave,-73.99415556,True,435,[],classic,40.74173969,71,50,10011,1176
W 22 St & 8 Ave,-73.99915362,True,453,[],classic,40.74475148,71,66,10011,1176
W 22 St & 10 Ave,-74.00451887,True,462,[],classic,40.74691959,71,77,10011,1176
W 20 St & 8 Ave,-74.00004031,True,470,[],classic,40.74345335,71,84,10011,1176
W 15 St & 7 Ave,-73.99931783,True,482,[],classic,40.73935542,71,79,10011,1176
9 Ave & W 22 St,-74.00197139,True,509,[],classic,40.7454973,71,61,10011,1176
W 15 St & 10 Ave,-74.00747358798981,True,3472,[],classic,40.742753828659026,71,39,10011,1176
W 18 St & 9 Ave,-74.00367558002472,True,3658,[],classic,40.7435337324616,71,27,10011,1176
W 13 St & 5 Ave,-73.99431,True,3708,[],classic,40.735445,71,29,10011,1176
W 15 St & 6 Ave,-73.99642959237099,True,3709,[],classic,40.738046142482766,71,50,10011,1176
W 20 St & 10 Ave,-74.005141,True,3813,[],classic,40.745686,71,49,10011,1176
8 Ave & W 16 St,-74.001702,True,3894,[],classic,40.740983,71,36,10011,1176
8 Ave & W 24 St,-73.99807110428809,True,4721,[],classic,40.74591072834279,71,39,10011,1176
St Marks Pl & 2 Ave,-73.98713956,True,236,[],classic,40.7284186,71,51,10003,1523
Broadway & E 14 St,-73.99074142,True,285,[],classic,40.73454567,71,0,10003,1523
Lafayette St & E 8 St,-73.99102628231049,True,293,[],classic,40.73020660529954,71,91,10003,1523
Washington Square E,-73.9957214,True,294,[],classic,40.73049393,71,64,10003,1523
E 15 St & 3 Ave,-73.986923,True,297,[],classic,40.734232,71,77,10003,1523
E 19 St & 3 Ave,-73.98473765,True,325,[],classic,40.73624527,71,35,10003,1523
E 11 St & 1 Ave,-73.98426726,True,326,[],classic,40.72953837,71,41,10003,1523
Washington Pl & Broadway,-73.99404649,True,335,[],classic,40.72903917,71,27,10003,1523
E 2 St & 2 Ave,-73.99069656,True,403,[],classic,40.72502876,71,58,10003,1523
E 3 St & 1 Ave,-73.98783413,True,428,[],classic,40.72467721,71,41,10003,1523
St Marks Pl & 1 Ave,-73.98564945,True,438,[],classic,40.72779126,71,47,10003,1523
E 4 St & 2 Ave,-73.98978041,True,439,[],classic,40.7262807,71,43,10003,1523
E 20 St & 2 Ave,-73.98205027,True,461,[],classic,40.73587678,71,56,10003,1523
E 12 St & 3 Ave,-73.98889957,True,483,[],classic,40.73223272,71,36,10003,1523
E 16 St & 5 Ave,-73.99238967,True,496,[],classic,40.73726186,71,65,10003,1523
E 17 St & Broadway,-73.99009296,True,497,[],classic,40.73704984,71,0,10003,1523
University Pl & E 8 St,-73.99490341544151,True,3244,[],classic,40.73143724085228,71,79,10003,1523
Cooper Square & Astor Pl,-73.99075269699097,True,3263,[],classic,40.72951496224949,71,59,10003,1523
E 16 St & Irving Pl,-73.98797392845154,True,3463,[],classic,40.735367055605394,71,79,10003,1523
University Pl & E 14 St,-73.992085,True,3812,[],classic,40.734814,71,55,10003,1523
4 Ave & E 12 St,-73.99011,True,3905,[],classic,40.732647,71,27,10003,1523
E 5 St & Cooper Sq,-73.990993,True,4333,[],classic,40.72769,71,34,10003,1523
E 13 St & 2 Ave,-73.9853024482727,True,4336,[],classic,40.73153937464073,71,54,10003,1523
E 1 St & 1 Ave,-73.98864984512329,True,4337,[],classic,40.72335597960796,71,51,10003,1523
E 11 St & 3 Ave,-73.98849,True,4406,[],classic,40.73127,71,80,10003,1523
E 9 St & 5 Ave,-73.99581670761108,True,4426,[],classic,40.73275887045087,71,59,10003,1523
E 6 St & 2 Ave,-73.98840844631195,True,4697,[],classic,40.727378693232225,71,47,10003,1523
E 14 St & 1 Ave,-73.98286700248718,True,4703,[],classic,40.73139303364151,71,34,10003,1523
E 10 St & 2 Ave,-73.9865979552269,True,4705,[],classic,40.72970805644994,71,41,10003,1523
Broadway & E 19 St,-73.98987293243407,True,4735,[],classic,40.73866091428551,71,45,10003,1523
E 17 St & 2 Ave,-73.98372530937195,True,4830,[],classic,40.73431166276575,71,47,10003,1523
South St & Whitehall St,-74.01234218,True,259,[],classic,40.70122128,71,39,10004,279
Broad St & Bridge St,-74.01167797,True,260,[],classic,40.70365182,71,33,10004,279
Broadway & Battery Pl,-74.01361706,True,304,[],classic,40.70463334,71,48,10004,279
Pearl St & Hanover Square,-74.00926027,True,415,[],classic,40.7047177,71,46,10004,279
Bus Slip & State St,-74.013942,True,427,[],classic,40.701907,71,47,10004,279
Little West St & 1 Pl,-74.01677685,True,2008,[],classic,40.70569254,71,35,10004,279
Whitehall St & Bridge St,-74.0131813287735,True,4688,[],classic,40.703661705241345,71,0,10004,279
South St & Broad St,-74.01089876890182,True,4748,[],classic,40.70188858913366,71,31,10004,279
Stanton St & Chrystie St,-73.99147535,True,265,[],classic,40.72229346,71,35,10002,1349
Madison St & Montgomery St,-73.984844,True,291,[],classic,40.713126,71,20,10002,1349
Pike St & E Broadway,-73.99293911,True,295,[],classic,40.71406667,71,24,10002,1349
Canal St & Rutgers St,-73.98990025,True,307,[],classic,40.71427487,71,31,10002,1349
Norfolk St & Broome St,-73.98802084,True,311,[],classic,40.7172274,71,59,10002,1349
Allen St & Stanton St,-73.989111,True,312,[],classic,40.722055,71,33,10002,1349
Pike St & Monroe St,-73.99193043,True,331,[],classic,40.71173107,71,27,10002,1349
Cherry St,-73.97948148,True,332,[],classic,40.71219906,71,36,10002,1349
Madison St & Clinton St,-73.98776323,True,340,[],classic,40.71269042,71,27,10002,1349
Stanton St & Mangin St,-73.97628939,True,341,[],classic,40.71782143,71,19,10002,1349
Columbia St & Rivington St,-73.98016555,True,342,[],classic,40.71739973,71,29,10002,1349
Rivington St & Ridge St,-73.98329859,True,349,[],classic,40.71850211,71,61,10002,1349
Clinton St & Grand St,-73.9870295,True,350,[],classic,40.71559509,71,47,10002,1349
Bialystoker Pl & Delancey St,-73.98261206,True,356,[],classic,40.71622644,71,23,10002,1349
Allen St & Hester St,-73.99190759,True,361,[],classic,40.71605866,71,79,10002,1349
Pitt St & Stanton St,-73.98178024,True,400,[],classic,40.71926081,71,15,10002,1349
Allen St & Rivington St,-73.98997825,True,401,[],classic,40.72019576,71,42,10002,1349
Market St & Cherry St,-73.99400398,True,408,[],classic,40.71076228,71,45,10002,1349
Suffolk St & Stanton St,-73.98517977,True,410,[],classic,40.72066442,71,79,10002,1349
Forsyth St & Canal St,-73.99422366,True,412,[],classic,40.7158155,71,29,10002,1349
Rivington St & Chrystie St,-73.9919254,True,473,[],classic,40.72110063,71,64,10002,1349
Henry St & Grand St,-73.981095,True,502,[],classic,40.714211,71,36,10002,1349
Forsyth St & Broome St,-73.99266288,True,531,[],classic,40.71893904,71,66,10002,1349
Stanton St & Norfolk St,-73.986274,True,3737,[],classic,40.720747,71,23,10002,1349
Delancey St & Eldridge St,-73.991479,True,3738,[],classic,40.719383,71,31,10002,1349
Division St & Bowery,-73.996732,True,3786,[],classic,40.714193,71,49,10002,1349
Grand St & Samuel Dickstein Plaza,-73.98417055606842,True,4338,[],classic,40.715118719964956,71,55,10002,1349
Forsyth St	& Grand St,-73.99316132068634,True,4339,[],classic,40.71779817737835,71,63,10002,1349
Clinton St & Cherry St,-73.98672603070736,True,4340,[],classic,40.711471394469264,71,33,10002,1349
Market St & Henry St,-73.99446353316307,True,4341,[],classic,40.71310702305908,71,28,10002,1349
South St & Pike St,-73.99161100387573,True,4694,[],classic,40.70991806921533,71,35,10002,1349
Orchard St & Grand St,-73.99067759513855,True,4695,[],classic,40.717318403855785,71,31,10002,1349
E Houston St & Columbia St,-73.97871628403664,True,4696,[],classic,40.71978635452822,71,35,10002,1349
Rutgers St & Henry St,-73.99009689688683,True,4706,[],classic,40.71332151208186,71,40,10002,1349
Broadway & W 36 St,-73.98765428,True,267,[],classic,40.75097711,71,78,10018,746
Broadway & W 37 St,-73.98753523,True,362,[],classic,40.75172632,71,57,10018,746
W 37 St & 10 Ave,-73.9979009,True,448,[],classic,40.75660359,71,27,10018,746
W 41 St & 8 Ave,-73.9900262,True,477,[],classic,40.75640548,71,71,10018,746
W 37 St & 5 Ave,-73.98338988,True,485,[],classic,40.75038009,71,40,10018,746
W 39 St & 9 Ave,-73.99372222,True,488,[],classic,40.75645824,71,44,10018,746
12 Ave & W 40 St,-74.00277668,True,514,[],classic,40.76087502,71,51,10018,746
W 37 St & Broadway,-73.98770570755005,True,3464,[],classic,40.75227093837409,71,56,10018,746
W 36 St & 9 Ave,-73.99516761302948,True,3635,[],classic,40.75462324029105,71,43,10018,746
W 40 St & 5 Ave,-73.982079,True,3798,[],classic,40.752269,71,55,10018,746
8 Ave & W 38 St,-73.99177,True,4044,[],classic,40.75461,71,48,10018,746
W 36 St & 7 Ave,-73.989539,True,4244,[],classic,40.752149,71,38,10018,746
Broadway & W 38 St,-73.98734897375107,True,4641,[],classic,40.7529728216068,71,46,10018,746
Hudson Blvd E & W 36 St,-73.99951145061095,True,4723,[],classic,40.75630628938069,71,47,10018,746
W 40 St & 7 Ave,-73.988154,True,4727,[],classic,40.754818,71,45,10018,746
E 58 St & 3 Ave,-73.96724467,True,305,[],classic,40.76095756,71,49,10155,49
South St & Gouverneur Ln,-74.00670227,True,315,[],classic,40.70355377,71,29,10005,213
William St & Pine St,-74.00887308,True,360,[],classic,40.70717936,71,39,10005,213
Liberty St & Nassau St,-74.00935482235809,True,4118,[],classic,40.70858894240581,71,45,10005,213
Old Slip & South St,-74.007867872715,True,4248,[],classic,40.70336686695866,71,63,10005,213
Water St & Gouverneur Ln,-74.00803416967392,True,4660,[],classic,40.70469667894968,71,37,10005,213
Vesey Pl & River Terrace,-74.01658354,True,327,[],classic,40.7153379,71,39,10282,167
West St & Chambers St,-74.01322069,True,426,[],classic,40.71754834,71,81,10282,167
River Ter & Warren St,-74.01587963104248,True,4733,[],classic,40.71759894980997,71,47,10282,167
Monroe St & Bedford Ave,-73.95380904,True,344,[],classic,40.6851443,71,23,11216,399
Hancock St & Bedford Ave,-73.95399026,True,436,[],classic,40.68216564,71,27,11216,399
Macon St & Nostrand Ave,-73.9500479759,True,437,[],classic,40.6809833854,71,24,11216,399
Kingston Ave & Herkimer St,-73.94142771,True,3041,[],classic,40.67890679,71,24,11216,399
Lewis Ave & Decatur St,-73.934903,True,3043,[],classic,40.6814598,71,19,11216,399
Albany Ave & Fulton St,-73.938475,True,3044,[],classic,40.6800105,71,27,11216,399
Marcus Garvey Blvd & Macon St,-73.938037,True,3046,[],classic,40.682601,71,19,11216,399
Halsey St & Tompkins Ave,-73.944118,True,3047,[],classic,40.6823687,71,21,11216,399
Putnam Ave & Nostrand Ave,-73.94977,True,3048,[],classic,40.68402,71,19,11216,399
Marcy Ave & Lafayette Ave,-73.947915,True,3053,[],classic,40.6900815,71,23,11216,399
Greene Ave & Nostrand Ave,-73.950916,True,3055,[],classic,40.6883337,71,23,11216,399
Monroe St & Tompkins Ave,-73.944694,True,3241,[],classic,40.686203,71,19,11216,399
Verona Pl & Fulton St,-73.9476791024208,True,3249,[],classic,40.6803560840434,71,19,11216,399
Bedford Ave & Bergen St,-73.952918,True,3571,[],classic,40.676368,71,24,11216,399
Park Pl & Franklin Ave,-73.9564947,True,3578,[],classic,40.6741806,71,21,11216,399
Sterling Pl & Bedford Ave,-73.954131,True,3579,[],classic,40.672695,71,25,11216,399
Eastern Pkwy & Franklin Ave,-73.9576801,True,3584,[],classic,40.6707767,71,42,11216,399
E 47 St & Park Ave,-73.97498696,True,359,[],classic,40.75510267,71,79,10167,79
West Thames St,-74.01713445,True,363,[],classic,40.70834698,71,73,10280,73
E 53 St & Lexington Ave,-73.97069431,True,367,[],classic,40.75828065,71,57,10022,761
E 55 St & 2 Ave,-73.96603308,True,385,[],classic,40.75797322,71,29,10022,761
E 51 St & 1 Ave,-73.96592976,True,454,[],classic,40.75455731,71,35,10022,761
E 53 St & Madison Ave,-73.97402311,True,456,[],classic,40.7597108,71,51,10022,761
E 56 St & 3 Ave,-73.96759673,True,464,[],classic,40.75934501,71,79,10022,761
E 51 St & Lexington Ave,-73.97207836,True,522,[],classic,40.75714758,71,75,10022,761
E 60 St & York Ave,-73.959223,True,2022,[],classic,40.759107,71,33,10022,761
E 59 St & Madison Ave,-73.97109243,True,3132,[],classic,40.76350532,71,35,10022,761
E 58 St & 1 Ave (NE Corner),-73.96226227283478,True,3243,[],classic,40.75892386377695,71,29,10022,761
E 58 St & Madison Ave,-73.97209525108337,True,3457,[],classic,40.76302594280519,71,66,10022,761
2 Ave & E 55 St,-73.96638214588165,True,3688,[],classic,40.757920208794026,71,29,10022,761
E 58 St & 1 Ave (NW Corner),-73.962658,True,3734,[],classic,40.759125,71,50,10022,761
E 56 St & Madison Ave,-73.972628,True,3814,[],classic,40.761573,71,33,10022,761
E 51 St & 2 Ave,-73.967641,True,3815,[],classic,40.755293,71,41,10022,761
Madison Av & E 51 St,-73.97513,True,4058,[],classic,40.75863,71,41,10022,761
E 50 St & Park Ave,-73.974235,True,4239,[],classic,40.757334,71,37,10022,761
E 54 St & 1 Ave,-73.964179,True,4279,[],classic,40.756265,71,41,10022,761
W 31 St & 7 Ave,-73.9916,True,379,[],classic,40.749156,71,55,10001,849
W 26 St & 10 Ave,-74.002950346,True,388,[],classic,40.749717753,71,35,10001,849
W 27 St & 7 Ave,-73.993915,True,442,[],classic,40.746647,71,51,10001,849
11 Ave & W 27 St,-74.005226,True,458,[],classic,40.751396,71,31,10001,849
Broadway & W 29 St,-73.98855723,True,486,[],classic,40.7462009,71,41,10001,849
10 Ave & W 28 St,-74.00176802,True,489,[],classic,40.75066386,71,49,10001,849
8 Ave & W 33 St,-73.993934,True,490,[],classic,40.751551,71,66,10001,849
W 26 St & 8 Ave,-73.99723551,True,494,[],classic,40.74734825,71,66,10001,849
6 Ave & W 33 St,-73.98848395,True,505,[],classic,40.74901271,71,52,10001,849
W 29 St & 9 Ave,-73.99839279,True,512,[],classic,40.7500727,71,29,10001,849
W 34 St & 11 Ave,-74.0021163,True,525,[],classic,40.75594159,71,56,10001,849
W 35 St & Dyer Ave,-73.99740189313889,True,3712,[],classic,40.754691750226016,71,41,10001,849
W 30 St & 10 Ave,-74.002353,True,3735,[],classic,40.752694,71,38,10001,849
Adam Clayton Powell Blvd & W 151 St,-73.936232,True,4041,[],classic,40.825289,71,18,10001,849
W 35 St & 9 Ave,-73.9960889518261,True,4219,[],classic,40.75414519263519,71,32,10001,849
8 Ave & W 27 St,-73.996637,True,4301,[],classic,40.747968,71,33,10001,849
W 34 St &	Hudson Blvd E,-74.00059908628464,True,4682,[],classic,40.75516719072139,71,39,10001,849
W 30 St & 8 Ave,-73.9952078461647,True,4713,[],classic,40.74965268472847,71,66,10001,849
W 33 St & 10 Ave,-73.99937599897385,True,4734,[],classic,40.753773368360385,71,51,10001,849
Broadway & Berry St,-73.96525063,True,389,[],classic,40.71044554,71,27,11249,304
S 4 St & Wythe Ave,-73.96590294,True,460,[],classic,40.71285887,71,25,11249,304
S 3 St & Bedford Ave,-73.96264403,True,481,[],classic,40.71260486,71,25,11249,304
Wythe Ave & Metropolitan Ave,-73.963198,True,2002,[],classic,40.716887,71,57,11249,304
Kent Ave & N 7 St,-73.96165072917938,True,3016,[],classic,40.72036775298455,71,54,11249,304
Berry St & N 8 St,-73.95852515,True,3092,[],classic,40.7190095,71,27,11249,304
N 6 St & Bedford Ave,-73.95850939,True,3093,[],classic,40.71745169,71,28,11249,304
N 11 St & Kent Ave,-73.95921930670738,True,3693,[],classic,40.72248188638219,71,27,11249,304
Railroad Ave & Kay Ave,-73.97078096866608,True,4684,[],classic,40.70514807698391,71,30,11249,304
Kent Ave & Division Ave,-73.9683187007904,True,4742,[],classic,40.706563674670925,71,4,11249,304
Bedford Ave & S 9 St,-73.96408963,True,443,[],classic,40.70853074,71,23,11211,731
Grand St & Havemeyer St,-73.95698119,True,471,[],classic,40.71286844,71,31,11211,731
S 5 Pl & S 5 St,-73.960876,True,532,[],classic,40.710451,71,43,11211,731
Metropolitan Ave & Bedford Ave,-73.96024116,True,539,[],classic,40.71534825,71,31,11211,731
Division Ave & Marcy Ave,-73.95796783,True,3075,[],classic,40.70708701,71,33,11211,731
Stagg St & Union Ave,-73.95095259,True,3077,[],classic,40.70877084,71,33,11211,731
Broadway & Roebling St,-73.96063148975372,True,3078,[],classic,40.70924826276157,71,27,11211,731
S 4 St & Rodney St,-73.95608,True,3080,[],classic,40.70934,71,21,11211,731
Graham Ave & Grand St,-73.944024,True,3081,[],classic,40.711863,71,29,11211,731
Hope St & Union Ave,-73.95141312,True,3082,[],classic,40.71167351,71,25,11211,731
Bushwick Ave & Powers St,-73.94100005,True,3083,[],classic,40.71247661,71,32,11211,731
Roebling St & N 4 St,-73.95739,True,3085,[],classic,40.71469,71,25,11211,731
Graham Ave & Conselyea St,-73.944507,True,3086,[],classic,40.715143,71,30,11211,731
Metropolitan Ave & Meeker Ave,-73.95234386,True,3087,[],classic,40.71413311,71,30,11211,731
Union Ave & Jackson St,-73.952029,True,3088,[],classic,40.7160751,71,19,11211,731
Graham Ave & Withers St,-73.94485918,True,3094,[],classic,40.7169811,71,18,11211,731
Devoe St & Lorimer St,-73.9491033554077,True,3453,[],classic,40.71335226222875,71,19,11211,731
Jackson St & Leonard St,-73.94821286201477,True,3456,[],classic,40.71638031973561,71,22,11211,731
Division Ave & Hooper St,-73.9544353965357,True,3714,[],classic,40.70684203101325,71,61,11211,731
Driggs Ave & N 9 St,-73.95520135760307,True,3715,[],classic,40.71816969454208,71,31,11211,731
Frost St & Meeker Ave,-73.94880026578903,True,3727,[],classic,40.71766197083994,71,38,11211,731
Powers St & Olive St,-73.93894,True,3767,[],classic,40.71323,71,0,11211,731
Devoe St & Morgan Ave,-73.93515,True,3772,[],classic,40.713811,71,19,11211,731
Metropolitan Ave & Vandervoort Ave,-73.93323,True,3816,[],classic,40.71429,71,24,11211,731
Withers St & Kingsland Ave,-73.94051,True,3817,[],classic,40.71773,71,18,11211,731
Morgan Ave & Maspeth Ave,-73.93637,True,3854,[],classic,40.716657,71,25,11211,731
Sharon St & Olive St,-73.93865078687668,True,4752,[],classic,40.715341620424475,71,24,11211,731
Broadway & W 41 St,-73.98658032,True,465,[],classic,40.75513557,71,39,10036,644
11 Ave & W 41 St,-73.99884222,True,478,[],classic,40.76030096,71,37,10036,644
9 Ave & W 45 St,-73.9912551,True,479,[],classic,40.76019252,71,31,10036,644
W 44 St & 5 Ave,-73.98014437,True,484,[],classic,40.75500254,71,46,10036,644
W 47 St & 10 Ave,-73.99301222,True,495,[],classic,40.76269882,71,39,10036,644
W 46 St & 11 Ave,-73.99667444,True,508,[],classic,40.76341379,71,25,10036,644
W 43 St & 10 Ave,-73.99461843,True,515,[],classic,40.76009437,71,79,10036,644
W 42 St & 8 Ave,-73.99098507,True,529,[],classic,40.7575699,71,41,10036,644
W 45 St & 8 Ave,-73.98859651,True,2021,[],classic,40.75929124,71,6,10036,644
W 42 St & Dyer Ave,-73.99379968643188,True,3236,[],classic,40.75898481399634,71,33,10036,644
W 47 St & 6 Ave,-73.98255,True,3731,[],classic,40.758397,71,68,10036,644
W 42 St & 6 Ave,-73.98455,True,3785,[],classic,40.75492,71,37,10036,644
6 Ave & W 45 St,-73.982631,True,4232,[],classic,40.756951,71,45,10036,644
W 44 St & 11 Ave,-73.996975,True,4238,[],classic,40.762009,71,79,10036,644
W 48 St &  Rockefeller Plaza,-73.97929430007935,True,4687,[],classic,40.75776935448309,71,39,10036,644
W 25 St & 6 Ave,-73.99144871,True,466,[],classic,40.74395411,71,35,10010,604
E 20 St & Park Ave,-73.98751968,True,503,[],classic,40.73827428,71,30,10010,604
E 25 St & 2 Ave,-73.97973776,True,507,[],classic,40.73912601,71,79,10010,604
Lexington Ave & E 24 St,-73.98409214,True,537,[],classic,40.74025878,71,53,10010,604
E 23 St & 1 Ave,-73.97809472,True,545,[],classic,40.736502,71,27,10010,604
Broadway & W 25 St,-73.98918628692627,True,3641,[],classic,40.74286877312112,71,73,10010,604
Lexington Ave & E 26 St,-73.983293,True,3707,[],classic,40.741459,71,55,10010,604
Madison Ave & E 26 St,-73.98671329021454,True,4040,[],classic,40.742684734875695,71,51,10010,604
E 27 St & Park Ave S,-73.9847157150507,True,4111,[],classic,40.74275179648995,71,47,10010,604
Broadway & E 21 St,-73.98958593606949,True,4640,[],classic,40.739888408589955,71,54,10010,604
E 20 St & FDR Dr,-73.9756813647,True,4724,[],classic,40.733208626522426,71,51,10010,604
E 22 St & 2 Ave,-73.98122549057007,True,4725,[],classic,40.73716919369882,71,49,10010,604
W 51 St & 6 Ave,-73.98042047,True,510,[],classic,40.7606597,71,55,10020,55
Fulton St & Utica Ave,-73.9298911,True,3042,[],classic,40.6794268,71,19,11233,91
Van Sinderen Ave & Truxton St,-73.90369,True,3824,[],classic,40.6786,71,23,11233,91
Halsey St & Broadway,-73.91564,True,3827,[],classic,40.68565,71,20,11233,91
Somers St & Broadway,-73.90474,True,3867,[],classic,40.67945,71,29,11233,91
Putnam Ave & Throop Ave,-73.94111,True,3050,[],classic,40.6851532,71,21,11221,625
Lewis Ave & Madison St,-73.935775,True,3052,[],classic,40.686312,71,23,11221,625
Greene Ave & Throop Ave,-73.942061,True,3054,[],classic,40.6894932,71,19,11221,625
Kosciuszko St & Tompkins Ave,-73.9452416,True,3057,[],classic,40.69128258,71,18,11221,625
Lewis Ave & Kosciuszko St,-73.93705428,True,3058,[],classic,40.69237074,71,24,11221,625
Pulaski St & Marcus Garvey Blvd,-73.939877,True,3059,[],classic,40.6933982,71,19,11221,625
Cedar St & Myrtle Ave,-73.926241,True,3761,[],classic,40.697842,71,27,11221,625
Willoughby Ave & Myrtle Ave,-73.93098,True,3820,[],classic,40.69757,71,19,11221,625
Broadway & Hancock St,-73.9168,True,3831,[],classic,40.68663,71,35,11221,625
Central Ave & Weirfield St,-73.91181,True,3832,[],classic,40.69055,71,21,11221,625
Madison St & Evergreen Ave,-73.91693,True,3833,[],classic,40.69122,71,18,11221,625
Knickerbocker Ave & Hancock St,-73.90974,True,3835,[],classic,40.69385,71,0,11221,625
Bushwick Ave & Linden St,-73.92146,True,3836,[],classic,40.69146,71,29,11221,625
Broadway & Kosciuszko St,-73.92852,True,3837,[],classic,40.69329,71,29,11221,625
Bushwick Ave & Harman St,-73.92524,True,3838,[],classic,40.69356,71,25,11221,625
Putnam Ave & Knickerbocker Ave,-73.91164,True,3839,[],classic,40.69545,71,29,11221,625
Menahan St & Central Ave,-73.9196,True,3841,[],classic,40.69543,71,25,11221,625
Bushwick Ave & Dekalb Ave,-73.92825,True,3842,[],classic,40.69502,71,29,11221,625
Central Ave & Himrod St,-73.92302,True,3846,[],classic,40.69676,71,25,11221,625
Cedar St & Evergreen Ave,-73.92807,True,3847,[],classic,40.69671,71,25,11221,625
Suydam St & Broadway,-73.93223,True,3848,[],classic,40.69544,71,32,11221,625
Linden St & Knickerbocker Ave,-73.91566,True,3862,[],classic,40.69714,71,18,11221,625
Central Ave & Woodbine St,-73.91605,True,3863,[],classic,40.69296,71,18,11221,625
Van Buren St & Broadway,-73.92617,True,3869,[],classic,40.692,71,24,11221,625
Broadway & Madison St,-73.91966,True,3879,[],classic,40.68822,71,25,11221,625
Grove St & Broadway,-73.923511,True,3890,[],classic,40.69047,71,31,11221,625
Jefferson Ave & Evergreen Ave,-73.91458,True,3903,[],classic,40.68989,71,17,11221,625
Willoughby Ave & Tompkins Ave,-73.94626915,True,3060,[],classic,40.69425403,71,19,11206,740
Throop Ave & Myrtle Ave,-73.94371094,True,3061,[],classic,40.69622937,71,21,11206,740
Myrtle Ave & Marcy Ave,-73.94954908,True,3062,[],classic,40.69539817,71,23,11206,740
Nostrand Ave & Myrtle Ave,-73.95238108,True,3063,[],classic,40.69527008,71,20,11206,740
Myrtle Ave & Lewis Ave,-73.93756926,True,3064,[],classic,40.69681963,71,23,11206,740
Union Ave & Wallabout St,-73.95032283,True,3065,[],classic,40.70029511,71,31,11206,740
Tompkins Ave & Hopkins St,-73.94708417,True,3066,[],classic,40.69957608,71,19,11206,740
Broadway & Whipple St,-73.9437303,True,3067,[],classic,40.7016657,71,27,11206,740
Humboldt St & Varet St,-73.940636,True,3068,[],classic,40.7031724,71,42,11206,740
Lorimer St & Broadway,-73.94818595,True,3069,[],classic,40.70411791,71,29,11206,740
McKibbin St & Manhattan Ave,-73.94407279,True,3070,[],classic,40.70510918,71,23,11206,740
Boerum St & Broadway,-73.94976519,True,3071,[],classic,40.70538077,71,19,11206,740
Leonard St & Boerum St,-73.94644578,True,3072,[],classic,40.70583339,71,24,11206,740
Montrose Ave & Bushwick Ave,-73.94016171,True,3074,[],classic,40.70767788,71,42,11206,740
Scholes St & Manhattan Ave,-73.9448625,True,3076,[],classic,40.70870368,71,36,11206,740
Park Ave & Marcus Garvey Blvd,-73.941342,True,3179,[],classic,40.698617,71,23,11206,740
Leonard St & Maujer St,-73.94705951213837,True,3454,[],classic,40.7103685423523,71,24,11206,740
White St & Moore St,-73.9351,True,3756,[],classic,40.704508,71,21,11206,740
Stagg St & Morgan Ave,-73.93372,True,3757,[],classic,40.710681,71,23,11206,740
Bushwick Ave & McKibbin St,-73.93936,True,3764,[],classic,40.705517,71,21,11206,740
Bushwick Ave & Stagg St,-73.94008,True,3765,[],classic,40.709897,71,21,11206,740
Waterbury St & Stagg St,-73.93734,True,3768,[],classic,40.71019,71,23,11206,740
White St & Johnson Ave,-73.93581,True,3769,[],classic,40.707174,71,23,11206,740
Central Ave & Flushing Ave,-73.9333,True,3770,[],classic,40.702831,71,21,11206,740
McKibbin St & Bogart St,-73.933871,True,3771,[],classic,40.706237,71,30,11206,740
Evergreen Ave & Noll St,-73.93318,True,3821,[],classic,40.70106,71,25,11206,740
Bushwick Ave & Forrest St,-73.93641,True,3822,[],classic,40.70076,71,20,11206,740
Beaver St & Fayette St,-73.93921,True,3823,[],classic,40.70099,71,30,11206,740
Melrose St & Broadway,-73.935877,True,3870,[],classic,40.697481,71,20,11206,740
Central Ave & Melrose St,-73.93039,True,3907,[],classic,40.70112,71,17,11206,740
Graham Ave & Herbert St,-73.94500379,True,3095,[],classic,40.71929301,71,26,11222,1001
Union Ave & N 12 St,-73.95242,True,3096,[],classic,40.71924,71,39,11222,1001
Nassau Ave & Newell St,-73.94752621650696,True,3100,[],classic,40.724812564400175,71,51,11222,1001
N 12 St & Bedford Ave,-73.95484712,True,3101,[],classic,40.72079821,71,27,11222,1001
Driggs Ave & Lorimer St,-73.9504154,True,3102,[],classic,40.72179134,71,27,11222,1001
N 15 St & Wythe Ave,-73.955736,True,3105,[],classic,40.724055,71,54,11222,1001
Driggs Ave & N Henry St,-73.94308,True,3106,[],classic,40.72325,71,52,11222,1001
Bedford Ave & Nassau Ave,-73.95212324,True,3107,[],classic,40.72311651,71,39,11222,1001
Nassau Ave & Russell St,-73.94434,True,3108,[],classic,40.72557,71,51,11222,1001
Banker St & Meserole Ave,-73.95621,True,3109,[],classic,40.72606,71,31,11222,1001
Meserole Ave & Manhattan Ave,-73.95299117,True,3110,[],classic,40.72708584,71,28,11222,1001
Milton St & Franklin St,-73.95779,True,3112,[],classic,40.72906,71,33,11222,1001
Greenpoint Ave & Manhattan Ave,-73.95394,True,3113,[],classic,40.73026,71,27,11222,1001
India St & Manhattan Ave,-73.9550858,True,3115,[],classic,40.73232194,71,50,11222,1001
Huron St & Franklin St,-73.95826,True,3116,[],classic,40.73266,71,35,11222,1001
Franklin St & Dupont St,-73.95866,True,3117,[],classic,40.73564,71,27,11222,1001
McGuinness Blvd & Eagle St,-73.95284,True,3118,[],classic,40.73555,71,42,11222,1001
Richardson St & N Henry St,-73.94223690032959,True,3430,[],classic,40.71907891179564,71,25,11222,1001
Bayard St & Leonard St,-73.94885390996933,True,3452,[],classic,40.71915571696044,71,43,11222,1001
Leonard St & Nassau Ave,-73.94984364509583,True,3668,[],classic,40.7239567849954,71,26,11222,1001
Calyer St & Jewel St,-73.94839,True,3818,[],classic,40.72984,71,40,11222,1001
Green St & McGuinness Blvd,-73.95204,True,3819,[],classic,40.73396,71,20,11222,1001
Frost St & Debevoise Ave,-73.93948,True,3855,[],classic,40.71882,71,22,11222,1001
Kingsland Ave & Nassau Ave,-73.94173,True,3856,[],classic,40.72577,71,25,11222,1001
Engert Ave & McGuinness Blvd,-73.94546,True,3857,[],classic,40.72158,71,19,11222,1001
Kent St & McGuinness Blvd,-73.95161,True,3858,[],classic,40.73124,71,20,11222,1001
Manhattan Av & Leonard St,-73.94844,True,3899,[],classic,40.72084,71,18,11222,1001
Morgan Ave & Lombardy St,-73.93889,True,3900,[],classic,40.72226,71,30,11222,1001
India St Pier,-73.9612390102593,True,4425,[],classic,40.731734785883454,71,54,11222,1001
Calyer St & Guernsey St,-73.95505852997303,True,4671,[],classic,40.72755807335852,71,20,11222,1001
Vernon Blvd & 50 Ave,-73.95411749,True,3119,[],classic,40.74232744,71,45,11101,1531
Jackson Ave & 46 Rd,-73.94733276,True,3121,[],classic,40.74524768,71,27,11101,1531
48 Ave & 5 St,-73.9558732509613,True,3122,[],classic,40.744363287066875,71,79,11101,1531
31 St & Thomson Ave,-73.93540375,True,3123,[],classic,40.74469738,71,47,11101,1531
46 Ave & 5 St,-73.95451,True,3124,[],classic,40.74731,71,43,11101,1531
45 Rd & 11 St,-73.94977234,True,3125,[],classic,40.74708586,71,23,11101,1531
44 Dr & Jackson Ave,-73.9432635,True,3126,[],classic,40.74718234,71,34,11101,1531
9 St & 44 Rd,-73.9521,True,3127,[],classic,40.74966,71,34,11101,1531
21 St & 43 Ave,-73.94594845,True,3128,[],classic,40.75052534,71,27,11101,1531
Queens Plaza North & Crescent St,-73.94073717,True,3129,[],classic,40.75110165,71,40,11101,1531
21 St & Queens Plaza North,-73.94335788,True,3130,[],classic,40.75325964,71,35,11101,1531
47 Ave & 31 St,-73.93561,True,3221,[],classic,40.743,71,27,11101,1531
Vernon Blvd & 41 Rd,-73.9485678,True,3554,[],classic,40.7552433,71,27,11101,1531
28 St & 41 Ave,-73.93797,True,3555,[],classic,40.751047,71,27,11101,1531
40 Ave & 9 St,-73.945133,True,3557,[],classic,40.75742,71,19,11101,1531
21 St & 38 Ave,-73.9391224,True,3559,[],classic,40.7576314,71,19,11101,1531
37 Ave & 35 St,-73.9279917,True,3561,[],classic,40.7531106,71,26,11101,1531
28 St & 36 Ave,-73.932719,True,3563,[],classic,40.757186,71,29,11101,1531
35 Ave & 37 St,-73.9236611,True,3570,[],classic,40.7557327,71,31,11101,1531
34 Ave & 38 St,-73.921631,True,3572,[],classic,40.756913,71,33,11101,1531
49 Ave & 21 St,-73.948852,True,3606,[],classic,40.74252,71,21,11101,1531
5 St & 51 Ave,-73.9566,True,3608,[],classic,40.7423737,71,21,11101,1531
Vernon Blvd & 47 Rd,-73.9534573,True,3611,[],classic,40.7449067,71,31,11101,1531
27 St & Hunter St,-73.941275,True,3618,[],classic,40.7485,71,33,11101,1531
11 St & 43 Ave,-73.9479119,True,3620,[],classic,40.7519071,71,28,11101,1531
31 St & Northern Blvd,-73.93349289894103,True,3654,[],classic,40.75186951421875,71,35,11101,1531
47 Ave & Skillman Ave,-73.94176483154297,True,3704,[],classic,40.7437524099784,71,19,11101,1531
40 Ave & Crescent St,-73.93795609474182,True,3716,[],classic,40.753599202005596,71,23,11101,1531
Center Blvd & 51 Ave,-73.95960688591003,True,3726,[],classic,40.743366080270214,71,23,11101,1531
24 St & 41 Ave,-73.939991,True,3808,[],classic,40.752474,71,19,11101,1531
38 Ave & 29 St,-73.93367,True,3892,[],classic,40.75473,71,19,11101,1531
34 St & 38 Ave,-73.929737,True,4254,[],classic,40.752443,71,25,11101,1531
42 Pl & Northern Blvd,-73.920603,True,4255,[],classic,40.753091,71,25,11101,1531
43 St & 37 Ave,-73.919998,True,4257,[],classic,40.750181,71,21,11101,1531
34 Ave & 45 St,-73.917014,True,4258,[],classic,40.754795,71,23,11101,1531
38 St & Northern Blvd,-73.925384,True,4262,[],classic,40.752372,71,23,11101,1531
50 St & Northern Blvd,-73.912402,True,4268,[],classic,40.753441,71,27,11101,1531
43 St & 35 Ave,-73.919543,True,4284,[],classic,40.754139,71,25,11101,1531
24 St & 38 Ave,-73.936515,True,4310,[],classic,40.756351,71,19,11101,1531
34 Ave & 48 St,-73.914952,True,4316,[],classic,40.75388,71,25,11101,1531
48 St & 37 Ave,-73.915026,True,4331,[],classic,40.751555,71,29,11101,1531
48 Ave & 31 St,-73.93616,True,4672,[],classic,40.74133,71,23,11101,1531
45 Ave & 21 St,-73.94777297973631,True,4674,[],classic,40.74737075646803,71,21,11101,1531
Van Dam St & Greenpoint Ave,-73.93790781497955,True,4747,[],classic,40.73443564069459,71,19,11101,1531
Bradley Ave & Greenpoint Ave,-73.93478840589523,True,4757,[],classic,40.73565914819229,71,21,11101,1531
Borden Ave & Review Ave,-73.94093804061413,True,4758,[],classic,40.73866345465306,71,19,11101,1531
31 Pl & Hunters Point Ave,-73.93537044525146,True,4759,[],classic,40.74021356884924,71,19,11101,1531
33 St & 47 Ave,-73.9321,True,4760,[],classic,40.74283,71,24,11101,1531
Skillman Ave & 43 Ave,-73.93215849995613,True,4762,[],classic,40.74653761978055,71,19,11101,1531
Skillman Ave & Honeywell St,-73.92902433872223,True,4763,[],classic,40.747148249032804,71,19,11101,1531
36 St & Queens Blvd,-73.92901,True,4764,[],classic,40.74408,71,24,11101,1531
36 St & 47 Ave,-73.92935156822205,True,4765,[],classic,40.742218349960964,71,19,11101,1531
34 St & 48 Ave,-73.93147185444832,True,4766,[],classic,40.740821207823245,71,25,11101,1531
48 Ave & 37 St,-73.92886072397232,True,4767,[],classic,40.74034668087185,71,19,11101,1531
36 St & Hunters Point Ave,-73.93024072051048,True,4768,[],classic,40.73781699881193,71,21,11101,1531
39 St & 50 Ave,-73.92737478017807,True,4769,[],classic,40.73824937345944,71,15,11101,1531
39 St & 47 Ave,-73.92662644386292,True,4770,[],classic,40.74215636827728,71,19,11101,1531
43 St & Skillman Ave,-73.9208248257637,True,4774,[],classic,40.74692675687384,71,19,11101,1531
E 68 St & 3 Ave,-73.96224617958069,True,3131,[],classic,40.76712840349542,71,36,10065,421
3 Ave & E 62 St,-73.96526895,True,3134,[],classic,40.76312584,71,51,10065,421
1 Ave & E 68 St,-73.95818491,True,3141,[],classic,40.76500525,71,62,10065,421
1 Ave & E 62 St,-73.96094022,True,3142,[],classic,40.7612274,71,45,10065,421
E 67 St & Park Ave,-73.96592080593109,True,3231,[],classic,40.76780080148132,71,39,10065,421
E 66 St & Madison Ave,-73.96845281124115,True,3355,[],classic,40.76800889305947,71,25,10065,421
E 68 St & Madison Ave,-73.96703464,True,3359,[],classic,40.7691572,71,58,10065,421
E 65 St & 2 Ave,-73.96222069859505,True,3376,[],classic,40.76471851944339,71,48,10065,421
E 63 St & 3 Ave,-73.9646,True,3898,[],classic,40.763954,71,57,10065,421
E 75 St & 3 Ave,-73.95772297,True,3135,[],classic,40.77112927,71,41,10021,281
5 Ave & E 72 St,-73.96685276,True,3137,[],classic,40.77282817,71,31,10021,281
E 72 St & Park Ave,-73.96409422159195,True,3139,[],classic,40.77118287540658,71,0,10021,281
5 Ave & E 78 St,-73.96427392959595,True,3143,[],classic,40.77632142182271,71,47,10021,281
3 Ave & E 71 St,-73.96119945,True,3152,[],classic,40.76873687,71,42,10021,281
E 72 St & York Ave,-73.95348296,True,3156,[],classic,40.76663814,71,37,10021,281
E 74 St & 1 Ave,-73.95482273,True,3372,[],classic,40.7689738,71,0,10021,281
3 Ave & E 72 St,-73.96060712,True,3375,[],classic,40.7699426,71,0,10021,281
E 76 St & Park Ave,-73.96222088,True,3378,[],classic,40.773763,71,28,10021,281
2 Ave & E 72 St,-73.95840793848038,True,3725,[],classic,40.7687620293096,71,55,10021,281
1 Ave & E 78 St,-73.9535166,True,3140,[],classic,40.77140426,71,57,10075,163
E 77 St & 3 Ave,-73.95856158,True,3154,[],classic,40.77314236,71,46,10075,163
E 80 St & 2 Ave,-73.9543953537941,True,3238,[],classic,40.77391390238118,71,35,10075,163
E 78 St & 2 Ave,-73.95577801,True,3370,[],classic,40.7727966,71,25,10075,163
E 81 St & Park Ave,-73.9590097,True,3144,[],classic,40.77677702,71,46,10028,392
E 84 St & Park Ave,-73.95772073,True,3145,[],classic,40.77862688,71,45,10028,392
E 81 St & 3 Ave,-73.9567526,True,3146,[],classic,40.77573034,71,47,10028,392
E 85 St & 3 Ave,-73.95407149,True,3147,[],classic,40.77801203,71,39,10028,392
E 84 St & 1 Ave,-73.95068615,True,3148,[],classic,40.77565541,71,31,10028,392
E 85 St & York Ave,-73.94803392,True,3150,[],classic,40.77536905,71,47,10028,392
E 81 St & York Ave,-73.94989233,True,3151,[],classic,40.7728384,71,47,10028,392
East End Ave & E 86 St,-73.94446054,True,3157,[],classic,40.77518615,71,27,10028,392
Madison Ave & E 82 St,-73.96069399,True,3362,[],classic,40.7781314,71,34,10028,392
E 82 St & East End Ave,-73.9468208,True,3369,[],classic,40.7724607,71,29,10028,392
W 63 St & Broadway,-73.98261428,True,3158,[],classic,40.77163851,71,31,10023,642
W 67 St & Broadway,-73.98266566,True,3159,[],classic,40.77492513,71,31,10023,642
Central Park West & W 76 St,-73.97374737,True,3160,[],classic,40.77896784,71,39,10023,642
W 76 St & Columbus Ave,-73.97728532552719,True,3161,[],classic,40.7801839724239,71,59,10023,642
Central Park West & W 68 St,-73.97782542,True,3163,[],classic,40.7734066,71,43,10023,642
Columbus Ave & W 72 St,-73.97898475,True,3164,[],classic,40.7770575,71,67,10023,642
Central Park West & W 72 St,-73.9762057363987,True,3165,[],classic,40.77579376683666,71,51,10023,642
Riverside Dr & W 72 St,-73.98562431335449,True,3166,[],classic,40.78057799010334,71,41,10023,642
Amsterdam Ave & W 73 St,-73.98093044757842,True,3167,[],classic,40.77966809007312,71,55,10023,642
W 74 St & Columbus Ave,-73.97754961,True,3172,[],classic,40.7785669,71,27,10023,642
W 70 St & Amsterdam Ave,-73.98288594,True,3175,[],classic,40.77748046,71,43,10023,642
Amsterdam Ave & W 66 St,-73.98470567,True,3356,[],classic,40.7746671,71,21,10023,642
W 64 St & Thelonious Monk Circle,-73.98918695747852,True,3697,[],classic,40.77515953434235,71,43,10023,642
West End Ave & W 60 St,-73.99005,True,4045,[],classic,40.77237,71,39,10023,642
Broadway & W 61 St,-73.9819684624672,True,4683,[],classic,40.77003010255044,71,52,10023,642
Riverside Dr & W 82 St,-73.98128127,True,3169,[],classic,40.78720869,71,75,10024,630
W 84 St & Columbus Ave,-73.97283406,True,3170,[],classic,40.78499979,71,35,10024,630
Amsterdam Ave & W 82 St,-73.97667321,True,3171,[],classic,40.78524672,71,39,10024,630
W 84 St & Broadway,-73.977112,True,3177,[],classic,40.7867947,71,63,10024,630
Riverside Dr & W 78 St,-73.98362492,True,3178,[],classic,40.78414472,71,79,10024,630
W 82 St & Central Park West,-73.97137,True,3226,[],classic,40.78275,71,45,10024,630
W 89 St & Columbus Ave,-73.97041561,True,3283,[],classic,40.7882213,71,47,10024,630
W 87 St & Amsterdam Ave,-73.9747,True,3285,[],classic,40.78839,71,43,10024,630
W 87 St & West End Ave,-73.97757,True,3287,[],classic,40.789622,71,47,10024,630
W 90 St & Amsterdam Ave,-73.97288918495178,True,3289,[],classic,40.79017948095081,71,32,10024,630
Amsterdam Ave & W 79 St,-73.9786517,True,3360,[],classic,40.7829391,71,48,10024,630
West End Ave & W 78 St,-73.981687,True,3914,[],classic,40.783786,71,39,10024,630
Central Park West & W 85 St,-73.969862,True,4075,[],classic,40.78476,71,38,10024,630
Riverside Blvd & W 67 St,-73.98888587951659,True,3173,[],classic,40.777507027547976,71,79,10069,79
Soissons Landing,-74.01486575603485,True,3254,[],classic,40.69231660719192,71,29,11231,961
Butler St & Court St,-73.99440329,True,3303,[],classic,40.6849894,71,35,11231,961
Henry St & Degraw St,-73.99917254,True,3315,[],classic,40.6847514,71,23,11231,961
Clinton St & Union St,-73.99785267,True,3321,[],classic,40.6831164,71,38,11231,961
Clinton St & Centre St,-74.00194698,True,3326,[],classic,40.67434,71,21,11231,961
Degraw St & Smith St,-73.99318208,True,3329,[],classic,40.6829151,71,27,11231,961
Henry St & Bay St,-74.00494695,True,3330,[],classic,40.6725058,71,19,11231,961
Columbia St & Lorraine St,-74.0075572,True,3333,[],classic,40.6747055,71,37,11231,961
Dwight St & Van Dyke St,-74.01195555925369,True,3337,[],classic,40.67363551341504,71,23,11231,961
Wolcott St & Dwight St,-74.0100698,True,3340,[],classic,40.6753274,71,21,11231,961
Pioneer St & Richards St,-74.0094613,True,3342,[],classic,40.6777748,71,23,11231,961
Pioneer St & Van Brunt St,-74.011169,True,3344,[],classic,40.679043,71,39,11231,961
Van Brunt St & Wolcott St,-74.01275056,True,3347,[],classic,40.6773429,71,36,11231,961
Coffey St & Conover St,-74.015665,True,3348,[],classic,40.677236,71,32,11231,961
Sigourney St & Columbia St,-74.0087952464819,True,3352,[],classic,40.67267243410948,71,21,11231,961
Carroll St & Bond St,-73.99037292,True,3377,[],classic,40.6786115,71,25,11231,961
3 St & Hoyt St,-73.99364123,True,3381,[],classic,40.6777287,71,53,11231,961
Carroll St & Smith St,-73.99475825,True,3382,[],classic,40.680611,71,41,11231,961
Smith St & 3 St,-73.99599099,True,3384,[],classic,40.6787242,71,25,11231,961
1 Pl & Clinton St,-73.99905709,True,3386,[],classic,40.6809591,71,34,11231,961
President St & Henry St,-73.99990419,True,3388,[],classic,40.6828003,71,0,11231,961
Carroll St & Columbia St,-74.00348559,True,3389,[],classic,40.6830456,71,39,11231,961
Commerce St & Van Brunt St,-74.00860912,True,3392,[],classic,40.6812117,71,19,11231,961
Richards St & Delavan St,-74.00785041,True,3393,[],classic,40.6794327,71,19,11231,961
Columbia St & W 9 St,-74.00647134,True,3394,[],classic,40.6769993,71,21,11231,961
Henry St & W 9 St,-74.00324957,True,3395,[],classic,40.6763744,71,19,11231,961
Clinton St & 4 Place,-74.00014502,True,3396,[],classic,40.6783563,71,25,11231,961
Court St & Nelson St,-73.99869893,True,3397,[],classic,40.6763947,71,33,11231,961
Smith St & 9 St,-73.99785768,True,3398,[],classic,40.6746957,71,23,11231,961
Picnic Point,-74.02535319328308,True,3479,[],classic,40.68512559515415,71,45,11231,961
Van Brunt St & Van Dyke St,-74.01472628116608,True,3676,[],classic,40.6758329439129,71,24,11231,961
Bay St & Court St,-74.001328,True,4477,[],classic,40.671409,71,26,11231,961
Yankee Ferry Terminal,-74.01675585121666,True,4503,[],classic,40.68706579875912,71,42,11231,961
Coffey St & Ferris St,-74.0170168876648,True,4666,[],classic,40.67818387977647,71,24,11231,961
8 Ave & W 31 St,-73.9946848154068,True,3255,[],classic,40.7505853470215,71,18,10199,18
E 88 St & Park Ave,-73.95595908164978,True,3284,[],classic,40.781410700190015,71,38,10128,528
E 89 St & 3 Ave,-73.9521667,True,3286,[],classic,40.7806284,71,39,10128,528
E 88 St & 1 Ave,-73.9488134,True,3288,[],classic,40.778301,71,39,10128,528
E 89 St & York Ave,-73.946041,True,3290,[],classic,40.7779453,71,35,10128,528
5 Ave & E 93 St,-73.957481,True,3292,[],classic,40.7857851,71,43,10128,528
E 91 St & Park Ave,-73.955327,True,3294,[],classic,40.7835016,71,35,10128,528
E 93 St & 2 Ave,-73.9489196240902,True,3296,[],classic,40.782454175279874,71,73,10128,528
E 91 St & 2 Ave,-73.94963040947914,True,3305,[],classic,40.781152764279156,71,73,10128,528
1 Ave & E 94 St,-73.94594,True,3312,[],classic,40.7817212,71,39,10128,528
2 Ave & E 96 St,-73.9471673,True,3318,[],classic,40.7839636,71,45,10128,528
E 95 St & 3 Ave,-73.950503,True,3325,[],classic,40.7849032,71,31,10128,528
5 Ave & E 87 St,-73.95987510681152,True,4645,[],classic,40.78232260730881,71,38,10128,528
W 92 St & Broadway,-73.9739,True,3293,[],classic,40.7921,71,24,10025,806
Columbus Ave & W 95 St,-73.968087,True,3301,[],classic,40.7919557,71,39,10025,806
Columbus Ave & W 103 St,-73.9643412291,True,3302,[],classic,40.7969347,71,40,10025,806
West End Ave & W 94 St,-73.974124,True,3307,[],classic,40.7941654,71,31,10025,806
W 95 St & Broadway,-73.971888,True,3314,[],classic,40.7937704,71,32,10025,806
W 106 St & Central Park West,-73.9605909006,True,3323,[],classic,40.7981856,71,59,10025,806
W 100 St & Manhattan Ave,-73.9645,True,3328,[],classic,40.795,71,39,10025,806
Riverside Dr & W 104 St,-73.9711457439,True,3331,[],classic,40.8013434,71,58,10025,806
W 107 St & Columbus Ave,-73.9621128676,True,3343,[],classic,40.7997568,71,23,10025,806
W 100 St & Broadway,-73.97041192,True,3350,[],classic,40.7973721,71,39,10025,806
W 106 St & Amsterdam Ave,-73.9664492472,True,3357,[],classic,40.8008363,71,35,10025,806
West End Ave & W 107 St,-73.9681805305,True,3366,[],classic,40.8021174,71,31,10025,806
Cathedral Pkwy & Broadway,-73.96699104,True,3383,[],classic,40.804213,71,25,10025,806
Riverside Dr & W 91 St,-73.97700369358063,True,3437,[],classic,40.79313480986663,71,59,10025,806
W 110 St & Amsterdam Ave,-73.96295,True,3538,[],classic,40.802692,71,45,10025,806
W 113 St & Broadway,-73.964928,True,3552,[],classic,40.805973,71,39,10025,806
W 104 St & Amsterdam Ave,-73.96649479866028,True,3689,[],classic,40.799041392882984,71,47,10025,806
Central Park W & W 97 St,-73.96417066463071,True,4122,[],classic,40.79249519495111,71,53,10025,806
Central Park W & W 103 St,-73.96188408136368,True,4123,[],classic,40.79558954105342,71,40,10025,806
Central Park W & W 91 St,-73.96680057048798,True,4124,[],classic,40.788664991278836,71,48,10025,806
6 St & 7 Ave,-73.97988067,True,3297,[],classic,40.6686627,71,21,11215,1123
Prospect Park West & 8 St,-73.97637605667114,True,3300,[],classic,40.66514681533792,71,25,11215,1123
6 Ave & 9 St,-73.98377641,True,3304,[],classic,40.668127,71,27,11215,1123
10 St & 7 Ave,-73.98199886,True,3306,[],classic,40.6662078,71,23,11215,1123
14 St & 7 Ave,-73.98396846,True,3310,[],classic,40.663779,71,24,11215,1123
6 Ave & 12 St,-73.9854617,True,3313,[],classic,40.6663181,71,29,11215,1123
10 St & 5 Ave,-73.98700053,True,3317,[],classic,40.6686273,71,24,11215,1123
14 St & 5 Ave,-73.98895053,True,3319,[],classic,40.666287,71,21,11215,1123
12 St & 4 Ave,-73.9904394,True,3322,[],classic,40.668603,71,25,11215,1123
3 Ave & 14 St,-73.99333264,True,3324,[],classic,40.6685455,71,25,11215,1123
Union St & 4 Ave,-73.98282002,True,3335,[],classic,40.6772744,71,28,11215,1123
3 St & Prospect Park West,-73.97363831,True,3354,[],classic,40.668132,71,31,11215,1123
Garfield Pl & 8 Ave,-73.97484126,True,3358,[],classic,40.6711978,71,25,11215,1123
Carroll St & 6 Ave,-73.9787282,True,3361,[],classic,40.6740886,71,23,11215,1123
Carroll St & 5 Ave,-73.9814832,True,3364,[],classic,40.6751622,71,27,11215,1123
3 St & 7 Ave,-73.97839676,True,3365,[],classic,40.6703837,71,27,11215,1123
5 Ave & 3 St,-73.98352355,True,3368,[],classic,40.6728155,71,30,11215,1123
3 St & 3 Ave,-73.98775226,True,3373,[],classic,40.6750705,71,79,11215,1123
7 St & 3 Ave,-73.98983001708984,True,3399,[],classic,40.67260298150126,71,24,11215,1123
4 Ave & 9 St,-73.98876585,True,3403,[],classic,40.6705135,71,31,11215,1123
7 St & 5 Ave,-73.98541675,True,3404,[],classic,40.6704922,71,27,11215,1123
5 St & 6 Ave,-73.98208968,True,3405,[],classic,40.6704836,71,23,11215,1123
Union St & Nevins St,-73.98765474557877,True,3407,[],classic,40.67909799721684,71,35,11215,1123
West Drive & Prospect Park West,-73.97945255041122,True,3423,[],classic,40.6610633719006,71,29,11215,1123
3 Ave & Carroll St,-73.9865,True,3762,[],classic,40.677027,71,27,11215,1123
10 St & 2 Ave,-73.993612,True,3795,[],classic,40.671907,71,19,11215,1123
16th St & 4th Ave,-73.992466,True,4342,[],classic,40.666197,71,30,11215,1123
3 Ave & 17 St,-73.995549,True,4343,[],classic,40.666168,71,21,11215,1123
Windsor Pl & 8 Ave,-73.983074,True,4345,[],classic,40.660906,71,20,11215,1123
17 St & 5 Ave,-73.991007,True,4346,[],classic,40.663493,71,25,11215,1123
6 Ave & 21 St,-73.990974,True,4348,[],classic,40.66016,71,27,11215,1123
Prospect Park W & 20 St,-73.983864,True,4350,[],classic,40.656633,71,25,11215,1123
11 Ave & Prospect Ave,-73.977335,True,4351,[],classic,40.65629,71,20,11215,1123
Windsor Pl & Howard Pl,-73.98013919591904,True,4408,[],classic,40.659490558938955,71,24,11215,1123
Prospect Park SW & 10 Ave,-73.977504,True,4428,[],classic,40.659945,71,30,11215,1123
4 Ave & 17 St,-73.993037,True,4435,[],classic,40.665507,71,23,11215,1123
1 St & 6 Ave,-73.979826,True,4475,[],classic,40.672784,71,35,11215,1123
4 Ave & 3 St,-73.985649,True,4481,[],classic,40.673746,71,39,11215,1123
President St & 4 Ave,-73.983262,True,4514,[],classic,40.676757,71,31,11215,1123
19 St & 8 Ave,-73.985543,True,4547,[],classic,40.658489,71,23,11215,1123
7 Ave & 17 St,-73.98680448532104,True,4756,[],classic,40.660937794931684,71,21,11215,1123
E 98 St & Park Ave,-73.95206,True,3299,[],classic,40.78813,71,25,10029,610
E 97 St & 3 Ave,-73.94860294,True,3309,[],classic,40.7859201,71,30,10029,610
3 Ave & E 100 St,-73.94728331,True,3327,[],classic,40.7877214,71,27,10029,610
E 97 St & Madison Ave,-73.953559,True,3336,[],classic,40.787801,71,37,10029,610
2 Ave & E 99 St,-73.94552579,True,3338,[],classic,40.7862586,71,31,10029,610
Madison Ave & E 99 St,-73.95242929458618,True,3345,[],classic,40.78948541553215,71,35,10029,610
E 102 St & 1 Ave,-73.94164802,True,3351,[],classic,40.7869946,71,24,10029,610
E 102 St & Park Ave,-73.95033068,True,3363,[],classic,40.7904828,71,33,10029,610
5 Ave & E 103 St,-73.95249933,True,3367,[],classic,40.7922553,71,39,10029,610
E 103 St & Lexington Ave,-73.94755757,True,3379,[],classic,40.7903051,71,35,10029,610
E 106 St & Madison Ave,-73.94945003,True,3387,[],classic,40.7934337,71,25,10029,610
E 106 St & 1 Ave,-73.93956237,True,3391,[],classic,40.7892529,71,26,10029,610
E 106 St & Lexington Ave,-73.945993,True,3424,[],classic,40.791976,71,27,10029,610
2 Ave & E 104 St,-73.94370784,True,3425,[],classic,40.7892105,71,33,10029,610
E 115 St & Lexington Ave,-73.9423,True,3494,[],classic,40.797911,71,25,10029,610
E 114 St & 1 Ave,-73.9362541,True,3495,[],classic,40.7945663,71,26,10029,610
1 Ave & E 110 St,-73.9383,True,3496,[],classic,40.7923272,71,25,10029,610
E 115 St & Madison Ave,-73.944846,True,3500,[],classic,40.7989445,71,31,10029,610
Lexington Ave & E 111 St,-73.9441232,True,3502,[],classic,40.7954121,71,29,10029,610
3 Ave & E 112 St,-73.941606,True,3551,[],classic,40.795508,71,23,10029,610
E 106 St & 2 Ave,-73.94195795059204,True,4738,[],classic,40.790586067792006,71,24,10029,610
Central Park North & Adam Clayton Powell Blvd,-73.955613,True,3374,[],classic,40.799484,71,36,10026,382
Lenox Ave & W 115 St,-73.9500739,True,3509,[],classic,40.8011939,71,31,10026,382
Adam Clayton Powell Blvd & W 115 St,-73.9532423,True,3511,[],classic,40.802535,71,22,10026,382
Adam Clayton Powell Blvd & W 118 St,-73.951475,True,3520,[],classic,40.804372,71,27,10026,382
Lenox Ave & W 111 St,-73.9523,True,3521,[],classic,40.7987859,71,36,10026,382
Frederick Douglass Blvd & W 117 St,-73.954692,True,3534,[],classic,40.805159,71,39,10026,382
Morningside Ave & W 123 St,-73.9551508,True,3540,[],classic,40.81,71,35,10026,382
Morningside Dr & Amsterdam Ave,-73.95736455917358,True,3543,[],classic,40.81028506306003,71,35,10026,382
Frederick Douglass Blvd & W 112 St,-73.957145,True,3553,[],classic,40.801694,71,37,10026,382
Lenox Ave & W 117 St,-73.9490782,True,3628,[],classic,40.8025566,71,31,10026,382
Frederick Douglass Blvd & W 115 St,-73.9559308,True,3630,[],classic,40.8038654,71,33,10026,382
W 111 St & 5 Ave,-73.9489397406578,True,4746,[],classic,40.797520781247556,71,20,10026,382
39 St & 2 Ave,-74.01062786579132,True,3477,[],classic,40.65539977447831,71,33,11232,601
2 Ave & 36 St,-74.00870203971863,True,3478,[],classic,40.65708866668485,71,43,11232,601
21 St & 4 Ave,-73.995554,True,4347,[],classic,40.662584,71,21,11232,601
23 St & 3 Ave,-73.998623,True,4369,[],classic,40.662611,71,24,11232,601
29 St & 5 Ave,-73.998194,True,4370,[],classic,40.656986,71,19,11232,601
30 St & 4 Ave,-74.001141,True,4371,[],classic,40.657743,71,19,11232,601
34 St & 5 Ave,-74.001131,True,4372,[],classic,40.654098,71,19,11232,601
5 Ave & 41 St,-74.005144,True,4373,[],classic,40.649983,71,30,11232,601
34 St & 4 Ave,-74.003101,True,4379,[],classic,40.655278,71,23,11232,601
5 Ave & 37 St,-74.002356,True,4380,[],classic,40.652657,71,30,11232,601
42 St & 1 Ave,-74.014372,True,4381,[],classic,40.654798,71,19,11232,601
41 St & 3 Ave,-74.008906,True,4382,[],classic,40.652512,71,19,11232,601
44 St & 2 Ave,-74.013587,True,4388,[],classic,40.652502,71,19,11232,601
52 St & 1 Ave,-74.020105,True,4392,[],classic,40.649292,71,22,11232,601
36 St & 4 Ave,-74.00422,True,4409,[],classic,40.654144,71,30,11232,601
41 St & 4 Ave,-74.007168,True,4410,[],classic,40.651354,71,23,11232,601
2 Av & 37 St,-74.009627,True,4415,[],classic,40.656326,71,31,11232,601
36 St & 3 Ave,-74.006664,True,4416,[],classic,40.655716,71,30,11232,601
2 Ave & 32 St,-74.006584,True,4418,[],classic,40.659176,71,27,11232,601
44 St & 6 Ave,-74.004483,True,4419,[],classic,40.647105,71,24,11232,601
7 Ave & 41 St,-74.000911,True,4420,[],classic,40.647379,71,25,11232,601
7 Ave & 40 St,-74.000057,True,4421,[],classic,40.648169,71,24,11232,601
44 St & 3 Ave,-74.011405,True,4422,[],classic,40.651173,71,23,11232,601
4 Ave & 26 St,-73.998633,True,4488,[],classic,40.660079,71,24,11232,601
E 116 St & 2 Ave,-73.937261,True,3490,[],classic,40.796879,71,31,10035,498
E 118 St & 1 Ave,-73.93504,True,3491,[],classic,40.79747,71,24,10035,498
E 118 St & Park Ave,-73.9419949,True,3492,[],classic,40.8005385,71,0,10035,498
E 118 St & 3 Ave,-73.9389152,True,3493,[],classic,40.799139,71,0,10035,498
Pleasant Ave & E 120 St,-73.9311847,True,3498,[],classic,40.7974772,71,21,10035,498
2 Ave & E 122 St,-73.9349,True,3499,[],classic,40.8006721,71,25,10035,498
E 118 St & Madison Ave,-73.9442507,True,3501,[],classic,40.8014866,71,29,10035,498
Madison Ave & E 120 St,-73.942954,True,3503,[],classic,40.80295,71,30,10035,498
E 123 St & Lexington Ave,-73.9379,True,3504,[],classic,40.8029263,71,27,10035,498
Lexington Ave & E 127 St,-73.936322,True,3505,[],classic,40.805726,71,33,10035,498
Lexington Ave & E 120 St,-73.9398167,True,3506,[],classic,40.8013066,71,29,10035,498
Park Ave & E 124 St,-73.9396861,True,3507,[],classic,40.8045555,71,36,10035,498
Mt Morris Park W & W 120 St,-73.945925,True,3535,[],classic,40.804038,71,27,10035,498
E 128 St & Madison Ave,-73.939182,True,3622,[],classic,40.80756,71,23,10035,498
E 128 St & 3 Ave,-73.934077,True,3988,[],classic,40.805631,71,19,10035,498
2 Ave & E 125 St,-73.933509,True,3994,[],classic,40.802554,71,30,10035,498
Lexington Ave & E 128 St,-73.936085,True,3996,[],classic,40.806414,71,24,10035,498
Wards Meadow Comfort Station,-73.93077,True,4112,[],classic,40.78294,71,18,10035,498
Icahn Stadium,-73.92389,True,4113,[],classic,40.79346,71,22,10035,498
Sunken Meadow Comfort Station,-73.91906,True,4114,[],classic,40.79558,71,25,10035,498
Bronx Shore Comfort Station,-73.92404,True,4115,[],classic,40.80046,71,25,10035,498
St Nicholas Ave & Manhattan Ave,-73.953149,True,3508,[],classic,40.809725,71,31,10027,668
Adam Clayton Powell Blvd & W 123 St,-73.949373,True,3510,[],classic,40.8078316,71,31,10027,668
Lenox Ave & W 126 St,-73.9452087,True,3518,[],classic,40.808442,71,34,10027,668
Frederick Douglass Blvd & W 129 St,-73.9492286,True,3531,[],classic,40.8125511,71,27,10027,668
St. Nicholas Ave & W 126 St,-73.9518776,True,3533,[],classic,40.8114323,71,34,10027,668
W 116 St & Broadway,-73.9641,True,3536,[],classic,40.8082,71,43,10027,668
W 116 St & Amsterdam Ave,-73.9607082,True,3539,[],classic,40.8067581,71,43,10027,668
Amsterdam Ave & W 125 St,-73.956461,True,3541,[],classic,40.813358,71,39,10027,668
Broadway & W 122 St,-73.9612547,True,3545,[],classic,40.8120562,71,33,10027,668
Broadway & Moylan Pl,-73.9590255,True,3547,[],classic,40.8143256,71,41,10027,668
Adam Clayton Powell Blvd & W 126 St,-73.94776493310928,True,3629,[],classic,40.809495347779475,71,33,10027,668
W 129 St & Convent Ave,-73.95324736833572,True,3649,[],classic,40.814394437915816,71,30,10027,668
12 Ave & W 125 St,-73.960405,True,3881,[],classic,40.818299,71,39,10027,668
Adam Clayton Powell Blvd & W 132 St,-73.94521,True,3928,[],classic,40.813539,71,23,10027,668
Amsterdam Ave & W 131 St,-73.954295,True,3935,[],classic,40.816355,71,19,10027,668
W 133 St & 12 Ave,-73.959089,True,3936,[],classic,40.820003,71,19,10027,668
Convent Ave & W 135 St,-73.950988,True,3944,[],classic,40.818215,71,30,10027,668
Adam Clayton Powell Blvd & W 130 St,-73.946168,True,4016,[],classic,40.812346,71,22,10027,668
Broadway & W 131 St,-73.957163,True,4018,[],classic,40.817555,71,21,10027,668
Old Broadway & W 133 St,-73.955277,True,4104,[],classic,40.818212,71,20,10027,668
Amsterdam Ave & W 119 St,-73.95958609887202,True,4224,[],classic,40.80863217506367,71,29,10027,668
5 Ave & W 126 St,-73.9418,True,4617,[],classic,40.80722,71,27,10027,668
21 St & Hoyt Ave S,-73.923706,True,3513,[],classic,40.774645,71,33,11102,360
Astoria Park S & Shore Blvd,-73.927631,True,3514,[],classic,40.7767,71,33,11102,360
31 St & Astoria Blvd,-73.9184057,True,3516,[],classic,40.7699176,71,0,11102,360
31 St & Hoyt Ave N,-73.9170074,True,3517,[],classic,40.7711528,71,35,11102,360
19 St & 24 Ave,-73.9225403,True,3524,[],classic,40.7774552,71,23,11102,360
30 Ave & 21 St,-73.9286078,True,3612,[],classic,40.7703743,71,15,11102,360
Crescent St & 30 Ave,-73.9249574,True,3614,[],classic,40.768692,71,23,11102,360
Newtown Ave & 23 St,-73.9246145,True,3619,[],classic,40.7713615,71,27,11102,360
27 Ave & 9 St,-73.9309134,True,3621,[],classic,40.7739825,71,40,11102,360
31 St & Newtown Ave,-73.9209334552288,True,3721,[],classic,40.7675487799971,71,37,11102,360
27 Ave & 3 St,-73.9342,True,3811,[],classic,40.77485,71,19,11102,360
18 St & 27 Ave,-73.92743647098541,True,4309,[],classic,40.772768286288304,71,23,11102,360
8 St & Astoria Blvd,-73.93266275525093,True,4311,[],classic,40.7725996921817,71,19,11102,360
30 Ave & 12 St,-73.93159255385399,True,4834,[],classic,40.771717105208275,71,33,11102,360
24 Ave & 26 St,-73.918544,True,3515,[],classic,40.774591,71,19,11105,712
37 St & 24 Ave,-73.9120938,True,3522,[],classic,40.7701477,71,19,11105,712
24 Ave & 29 St,-73.916142,True,3523,[],classic,40.7729,71,45,11105,712
23 Ave & 27 St,-73.9153175,True,3525,[],classic,40.776165,71,21,11105,712
31 St & 23 Ave,-73.9125551,True,3526,[],classic,40.7747878,71,27,11105,712
Steinway St & 23 Ave,-73.9077436,True,3528,[],classic,40.7713937,71,21,11105,712
Crescent St & Ditmars Blvd,-73.9145645,True,3530,[],classic,40.7787185,71,19,11105,712
Ditmars Blvd & 19 St,-73.9183302,True,3532,[],classic,40.78145,71,27,11105,712
43 St & 23 Ave,-73.906018,True,4260,[],classic,40.769673,71,23,11105,712
36 St & Ditmars Blvd,-73.908335,True,4261,[],classic,40.774306,71,25,11105,712
Ditmars Blvd & 43 St,-73.903865,True,4272,[],classic,40.771203,71,27,11105,712
35 St & 21 Ave,-73.906558,True,4274,[],classic,40.776745,71,23,11105,712
21 Ave & Shore Blvd,-73.916894,True,4275,[],classic,40.783956,71,21,11105,712
20 Ave & Shore Blvd,-73.915098,True,4276,[],classic,40.785994,71,19,11105,712
20 Ave & 42 St,-73.900063,True,4277,[],classic,40.775415,71,21,11105,712
Steinway St & Ditmars Blvd,-73.906127,True,4287,[],classic,40.772717,71,21,11105,712
Steinway St & 21 Ave,-73.903787,True,4288,[],classic,40.774798,71,21,11105,712
31 St & 21 Ave,-73.90842,True,4289,[],classic,40.77813,71,27,11105,712
20 Ave & 38 St,-73.902382,True,4290,[],classic,40.777112,71,29,11105,712
20 Ave & 48 St,-73.896849,True,4291,[],classic,40.772899,71,23,11105,712
Steinway St & 19 Ave,-73.899558,True,4296,[],classic,40.778089,71,21,11105,712
21 St & 23 Ave,-73.919046,True,4302,[],classic,40.778557,71,22,11105,712
35 St & 23 Ave,-73.91119033098221,True,4306,[],classic,40.77301508291382,71,28,11105,712
Shore Blvd & Astoria Park,-73.923162,True,4312,[],classic,40.77977,71,33,11105,712
31 St & Ditmars Blvd,-73.910485,True,4320,[],classic,40.776168,71,24,11105,712
21 Ave & Crescent St,-73.912212,True,4321,[],classic,40.780478,71,24,11105,712
20 Ave & 21 St,-73.912297,True,4322,[],classic,40.784003,71,19,11105,712
21 St & 21 Ave,-73.914527,True,4327,[],classic,40.782465,71,21,11105,712
20 Ave & 31 St,-73.90667617321014,True,4661,[],classic,40.78001336610564,71,21,11105,712
23 Rd & 31 St,-73.91382560133934,True,4662,[],classic,40.77336750284339,71,21,11105,712
Lenox Ave & W 130 St,-73.9430681,True,3529,[],classic,40.8107922,71,10,10037,163
E 132 St & Madison Ave,-73.937195,True,3920,[],classic,40.810224,71,19,10037,163
5 Ave & W 131 St,-73.93973,True,3926,[],classic,40.81014,71,20,10037,163
5 Ave & E 135 St,-73.937838,True,3995,[],classic,40.812191,71,21,10037,163
5 Av & W 139 St,-73.935856,True,3997,[],classic,40.815484,71,20,10037,163
W 135 St & Lenox Terrace Pl,-73.939336,True,3998,[],classic,40.813619,71,29,10037,163
Lenox Ave & W 144 St,-73.936521,True,4000,[],classic,40.819783,71,22,10037,163
E 138 St & 5 Av,-73.936153,True,4017,[],classic,40.81449,71,22,10037,163
21 St & 36 Ave,-73.9362726,True,3564,[],classic,40.7601853,71,19,11106,571
36 Ave & 10 St,-73.9411265,True,3565,[],classic,40.7614376,71,19,11106,571
Crescent St & 35 Ave,-73.9321455,True,3566,[],classic,40.7596276,71,25,11106,571
34 St & 35 Ave,-73.9262231,True,3568,[],classic,40.7569332,71,21,11106,571
35 St & 34 Ave,-73.9242751,True,3573,[],classic,40.7580583,71,25,11106,571
Crescent St & 34 Ave,-73.930562,True,3575,[],classic,40.76108,71,27,11106,571
34 Ave & 21 St,-73.9342862,True,3577,[],classic,40.7628138,71,23,11106,571
34 Ave & 13 St,-73.9364848,True,3586,[],classic,40.7638753,71,19,11106,571
Vernon Blvd & 10 St,-73.9373554,True,3588,[],classic,40.7671863,71,41,11106,571
Broadway & 12 St,-73.9347774,True,3589,[],classic,40.7668,71,31,11106,571
21 St & 31 Dr,-73.930819,True,3591,[],classic,40.7659,71,21,11106,571
Crescent St & Broadway,-73.9286471,True,3592,[],classic,40.7633589,71,19,11106,571
31 St & Broadway,-73.925921,True,3593,[],classic,40.761584,71,35,11106,571
35 St & Broadway,-73.9222427,True,3595,[],classic,40.760339,71,18,11106,571
31 Ave & 34 St,-73.920827,True,3602,[],classic,40.763154,71,23,11106,571
31 Ave & 30 St,-73.9240312,True,3603,[],classic,40.7647,71,21,11106,571
31 Ave & Crescent St,-73.9265474,True,3605,[],classic,40.7658346,71,21,11106,571
31 Ave & 14 St,-73.9322662,True,3607,[],classic,40.7682,71,19,11106,571
Vernon Blvd & 31 Ave,-73.9354504,True,3609,[],classic,40.7692475,71,23,11106,571
35 Ave & 10 St,-73.93985509872437,True,3646,[],classic,40.76315481910373,71,26,11106,571
36 Ave & 31 St,-73.92957486212252,True,3745,[],classic,40.75651272984955,71,27,11106,571
34th Ave & Vernon Blvd,-73.93986314535141,True,4304,[],classic,40.76535380385866,71,30,11106,571
34 Ave & 31 St,-73.92714411020279,True,4305,[],classic,40.759604471387945,71,19,11106,571
31 Rd & 21 St,-73.930486,True,4330,[],classic,40.766824,71,19,11106,571
Union St & Bedford Ave,-73.9554162,True,3585,[],classic,40.6691783,71,24,11225,239
Carroll St & Washington Ave,-73.9618148,True,3587,[],classic,40.6686744,71,27,11225,239
Carroll St & Franklin Ave,-73.9588,True,3590,[],classic,40.6679411,71,19,11225,239
Sullivan Pl & Bedford Ave,-73.9574686,True,3596,[],classic,40.6642406,71,19,11225,239
Sterling St & Bedford Ave,-73.9569115,True,3601,[],classic,40.6627059,71,19,11225,239
Rogers Ave & Sterling St,-73.9538746,True,3604,[],classic,40.6630619,71,17,11225,239
Montgomery St & Franklin Ave,-73.9605563879013,True,3661,[],classic,40.666439306870814,71,19,11225,239
Bedford Ave & Montgomery St,-73.956934,True,3803,[],classic,40.665816,71,27,11225,239
Sullivan Pl & Franklin Ave,-73.96025128666679,True,4117,[],classic,40.66407983678161,71,27,11225,239
Flatbush Ave & Ocean Ave,-73.963014,True,4658,[],classic,40.663657,71,41,11225,239
43 St & Broadway,-73.9166368,True,3597,[],classic,40.7577284,71,25,11103,436
Newton Rd & 44 St,-73.9142678,True,3598,[],classic,40.7595701,71,19,11103,436
31 Ave & Steinway St,-73.9170071,True,3600,[],classic,40.7611488,71,27,11103,436
Steinway St & 28 Ave,-73.9136695,True,3616,[],classic,40.7656251,71,25,11103,436
28 Ave & 35 St,-73.9169858,True,3617,[],classic,40.7671,71,27,11103,436
28 Ave & 44 St,-73.91065120697021,True,3691,[],classic,40.76408932350688,71,19,11103,436
25 Ave & 41 St,-73.910963,True,4256,[],classic,40.767666,71,23,11103,436
49 St & 25 Ave,-73.904632,True,4259,[],classic,40.764496,71,25,11103,436
30 Ave & 41 St,-73.914142,True,4263,[],classic,40.763422,71,23,11103,436
48 St & Broadway,-73.912715,True,4264,[],classic,40.755763,71,31,11103,436
49 St & 31 Ave,-73.909831,True,4265,[],classic,40.758057,71,19,11103,436
38 St & 30 Ave,-73.91583994030952,True,4283,[],classic,40.764174520197685,71,27,11103,436
46 St & 25 Ave,-73.90676,True,4285,[],classic,40.765753,71,24,11103,436
Steinway St & Broadway,-73.91897544264793,True,4303,[],classic,40.75905795418586,71,32,11103,436
46 St & 28 Ave,-73.908782,True,4313,[],classic,40.763328,71,19,11103,436
30 Ave & 47 St,-73.909562,True,4314,[],classic,40.761294,71,21,11103,436
46 St & 30 Rd,-73.910989,True,4315,[],classic,40.76072,71,21,11103,436
35 St & 30 Ave,-73.91811579465866,True,4329,[],classic,40.76547569244953,71,29,11103,436
Center Blvd & 48 Ave,-73.957539,True,3613,[],classic,40.745038,71,27,11109,27
W 120 St & Claremont Ave,-73.9634,True,3623,[],classic,40.8109494,71,39,10115,39
George St & Wilson Ave,-73.92997,True,3758,[],classic,40.702997,71,19,11237,620
Irving Ave & Jefferson St,-73.92535,True,3759,[],classic,40.70538,71,19,11237,620
Willoughby Ave & Wyckoff Ave,-73.92153,True,3760,[],classic,40.705614,71,23,11237,620
Wyckoff Av & Jefferson St,-73.923711,True,3763,[],classic,40.707165,71,27,11237,620
Knickerbocker Ave & Thames St,-73.92976,True,3773,[],classic,40.70539,71,20,11237,620
Knickerbocker Ave & George St,-73.92836,True,3774,[],classic,40.704425,71,23,11237,620
Suydam St & Knickerbocker Ave,-73.923769,True,3775,[],classic,40.702013,71,27,11237,620
Central Ave & Starr Street,-73.92834,True,3776,[],classic,40.700003,71,23,11237,620
Stockholm St & Wilson Ave,-73.923044,True,3777,[],classic,40.699304,71,23,11237,620
Irving Ave & DeKalb Ave,-73.92095,True,3778,[],classic,40.7027,71,27,11237,620
Hart St & Wyckoff Ave,-73.919911,True,3779,[],classic,40.704876,71,24,11237,620
Wyckoff Av & Stanhope St,-73.917775,True,3780,[],classic,40.703545,71,22,11237,620
Greene Av & Myrtle Av,-73.918877,True,3781,[],classic,40.698568,71,30,11237,620
Irving Ave & Halsey St,-73.90663,True,3834,[],classic,40.69467,71,19,11237,620
Putnam Ave & Wyckoff Ave,-73.90904,True,3840,[],classic,40.69811,71,24,11237,620
Myrtle Ave & Grove St,-73.91516,True,3843,[],classic,40.69905,71,23,11237,620
Myrtle Ave & Linden St,-73.91337,True,3844,[],classic,40.69943,71,25,11237,620
Irving Ave & Harman St,-73.9179,True,3845,[],classic,40.70108,71,21,11237,620
Suydam St & St. Nicholas Ave,-73.91945,True,3849,[],classic,40.70636,71,17,11237,620
Jefferson St & Cypress Ave,-73.92157,True,3850,[],classic,40.70907,71,25,11237,620
Metropolitan Ave & Stewart Ave,-73.92793,True,3851,[],classic,40.71401,71,20,11237,620
Stewart Ave & Johnson Ave,-73.92587,True,3852,[],classic,40.70869,71,17,11237,620
Harrison Pl & Porter Ave,-73.92851,True,3853,[],classic,40.70686,71,20,11237,620
Wilson Ave & Troutman St,-73.92754,True,3860,[],classic,40.70166,71,26,11237,620
Menahan St & Wyckoff Ave,-73.91422,True,3861,[],classic,40.70113,71,20,11237,620
Irving Ave & Palmetto St,-73.9127,True,3891,[],classic,40.698,71,20,11237,620
Wyckoff Ave & Gates Ave,-73.91171872615814,True,3904,[],classic,40.699871408829885,71,36,11237,620
6 Ave & W 34 St,-73.98805,True,3799,[],classic,40.74964,71,67,10120,67
Broadway & Furman Ave,-73.90756,True,3825,[],classic,40.68139,71,29,11207,275
Moffat St & Bushwick,-73.90925,True,3826,[],classic,40.68458,71,18,11207,275
Eldert St & Bushwick Ave,-73.91321,True,3828,[],classic,40.68652,71,22,11207,275
Central Ave & Decatur St,-73.90798,True,3829,[],classic,40.6882,71,24,11207,275
Halsey St & Evergreen Ave,-73.91227,True,3830,[],classic,40.68858,71,22,11207,275
Central Ave & Covert St,-73.90951,True,3864,[],classic,40.68929,71,30,11207,275
Knickerbocker Ave & Cooper St,-73.90448,True,3865,[],classic,40.69081,71,24,11207,275
Wilson Ave & Moffat St,-73.90506,True,3866,[],classic,40.68906,71,32,11207,275
Knickerbocker Ave & Halsey St,-73.90824,True,3868,[],classic,40.693,71,19,11207,275
Bushwick Ave & Furman Ave,-73.90623,True,3871,[],classic,40.68281,71,30,11207,275
Rockaway Ave & Bainbridge St,-73.91166642308235,True,3893,[],classic,40.68319988172761,71,25,11207,275
Hancock St & Wyckoff Ave,-73.90674,True,3872,[],classic,40.6972,71,19,11385,434
Madison St & Cypress Ave,-73.90742,True,3873,[],classic,40.70068,71,17,11385,434
Menahan St & Seneca Ave,-73.91054,True,3874,[],classic,40.70461,71,16,11385,434
Stephen St & Seneca Ave,-73.9007,True,3875,[],classic,40.6988,71,15,11385,434
Forest Ave & Summerfield St,-73.89795,True,3876,[],classic,40.69922,71,23,11385,434
Madison St & Forest Ave,-73.90245,True,3877,[],classic,40.70555,71,25,11385,434
Cypress Ave & George St,-73.90271,True,3878,[],classic,40.69812,71,19,11385,434
Willoughby Ave & Onderdonk Ave,-73.91727,True,3880,[],classic,40.7098,71,27,11385,434
Norman St & Wyckoff Ave,-73.90311,True,3882,[],classic,40.69517,71,15,11385,434
Harman St & Seneca Ave,-73.91292,True,3883,[],classic,40.70577,71,19,11385,434
Centre St & Seneca Ave,-73.9022,True,3884,[],classic,40.69969,71,23,11385,434
Onderdonk Ave & Gates Ave,-73.90737,True,3885,[],classic,40.70413,71,19,11385,434
Menahan St & Onderdonk Ave,-73.9096,True,3886,[],classic,40.70553,71,20,11385,434
Flushing Ave & Woodward Ave,-73.91873,True,3887,[],classic,40.71246,71,21,11385,434
Woodward Ave & Harman St,-73.91092,True,3888,[],classic,40.70793,71,19,11385,434
Cypress Ave & Palmetto St,-73.90876293182373,True,3895,[],classic,40.701573408737914,71,25,11385,434
Madison St & Seneca Ave,-73.90625,True,3896,[],classic,40.70183,71,22,11385,434
Onderdonk Ave & Dekalb Ave,-73.91497,True,3897,[],classic,40.70863,71,17,11385,434
Stanhope St & Fairview Ave,-73.91116,True,3901,[],classic,40.70998,71,17,11385,434
Fairview Ave & Linden St,-73.90632,True,3902,[],classic,40.70694,71,19,11385,434
Madison St & Woodward Ave,-73.90408,True,3909,[],classic,40.70408,71,20,11385,434
Greene Ave & Grandview Ave,-73.907856,True,3910,[],classic,40.709697,71,17,11385,434
West St & Liberty St,-74.014847,True,3906,[],classic,40.711444,71,32,10080,32
Willis Ave & Bruckner Blvd,-73.925177,True,3921,[],classic,40.805701,71,19,10454,437
Alexander Ave & E 134 St,-73.927107,True,3922,[],classic,40.807466,71,19,10454,437
Lincoln Ave & E 134 St,-73.928803,True,3923,[],classic,40.808484,71,17,10454,437
Willis Ave & E 141 St,-73.921606,True,3929,[],classic,40.81093,71,19,10454,437
E 142 St & 3 Ave,-73.923697,True,3930,[],classic,40.812735,71,19,10454,437
E 135 St & St Ann's Ave,-73.918889,True,3937,[],classic,40.805089,71,23,10454,437
E 133 St & Cypress Pl,-73.9174,True,3938,[],classic,40.80262,71,19,10454,437
Willow Ave & E 133 St,-73.913863,True,3939,[],classic,40.800933,71,21,10454,437
E 134 St & Walnut Ave,-73.911034,True,3940,[],classic,40.800425,71,16,10454,437
Walnut Ave & E 136 St,-73.909513,True,3941,[],classic,40.801657,71,17,10454,437
E 138 St & Willow Ave,-73.911545,True,3947,[],classic,40.804168,71,18,10454,437
E 138 St & Cypress Ave,-73.914718,True,3948,[],classic,40.805559,71,23,10454,437
Brook Ave & E 138 St,-73.91924,True,3949,[],classic,40.807408,71,23,10454,437
Brook Ave & E 141 St,-73.917875,True,3950,[],classic,40.809619,71,19,10454,437
E 141 St & St Ann's Ave,-73.916124,True,3951,[],classic,40.808633,71,19,10454,437
E 141 St & Jackson Ave,-73.911837,True,3952,[],classic,40.806896,71,19,10454,437
St. Ann's Ave & E 144 St,-73.914932,True,3956,[],classic,40.811112,71,23,10454,437
E 144 St & Brook Ave,-73.917037,True,3957,[],classic,40.811675,71,19,10454,437
Willis Ave & E 143 St,-73.92037,True,3958,[],classic,40.812299,71,23,10454,437
Willis Ave & E 137 St,-73.923604,True,3989,[],classic,40.808384,71,22,10454,437
St. Ann's Av & Bruckner Blvd,-73.919763,True,4019,[],classic,40.803399,71,17,10454,437
Southern Blvd & E 142 St,-73.90809774398804,True,4064,[],classic,40.807347437082,71,23,10454,437
Lincoln Ave & E 138 St,-73.927311,True,3924,[],classic,40.810893,71,26,10451,645
Morris Ave & E 142 St,-73.924963,True,3931,[],classic,40.814469,71,23,10451,645
Grand Concourse & E 144 St,-73.927987,True,3932,[],classic,40.816576,71,23,10451,645
Gerard Ave & E 146 St,-73.92965,True,3933,[],classic,40.817755,71,19,10451,645
Morris Ave & E 153 St,-73.921411,True,3961,[],classic,40.820036,71,19,10451,645
E 158 St & Melrose Ave,-73.914688,True,3972,[],classic,40.822215,71,23,10451,645
Brook Ave & E 157 St,-73.911759,True,3975,[],classic,40.820713,71,21,10451,645
E 149 St & Morris Ave,-73.922962,True,3986,[],classic,40.81734,71,35,10451,645
E 138 St & Grand Concourse,-73.930605,True,4021,[],classic,40.813224,71,21,10451,645
E 150 St & Gerard Ave,-73.928947,True,4076,[],classic,40.820089,71,29,10451,645
Concourse Village East & E 158 St,-73.919379,True,4078,[],classic,40.823732,71,31,10451,645
Grand Concourse & E 156 St,-73.924689,True,4090,[],classic,40.823429,71,21,10451,645
Park Ave & E 162 St,-73.915585,True,4094,[],classic,40.825716,71,21,10451,645
E 153 St & E 157 St,-73.929327,True,4101,[],classic,40.826677,71,19,10451,645
Concourse Village West & E 156 St,-73.923267,True,4105,[],classic,40.823162,71,21,10451,645
E 161 St & River Ave,-73.927111,True,4125,[],classic,40.827883,71,38,10451,645
E 157 St & River Ave,-73.927311,True,4126,[],classic,40.825737,71,19,10451,645
Washington Ave & E 163 St,-73.91089,True,4136,[],classic,40.824,71,23,10451,645
3 Ave & E 163 St,-73.908699,True,4137,[],classic,40.823872,71,27,10451,645
River Ave & E 153 St,-73.92818,True,4166,[],classic,40.82441,71,27,10451,645
E 149 St & Park Ave,-73.925294,True,4186,[],classic,40.818154,71,27,10451,645
E 161 St & Park Ave,-73.916407,True,4198,[],classic,40.824811,71,21,10451,645
Walton Ave & E 153 St,-73.926907,True,4208,[],classic,40.822351,71,19,10451,645
River Ave & E 151 St,-73.928939,True,4222,[],classic,40.822217,71,27,10451,645
Morris Ave & E 163 St,-73.91765579597632,True,4332,[],classic,40.827230499624726,71,21,10451,645
E 156 St & Courtlandt Ave,-73.9173299074173,True,4745,[],classic,40.82123860172,71,23,10451,645
E 138 St & Park Ave,-73.92924964427948,True,4751,[],classic,40.81263616769319,71,21,10451,645
Lenox Ave & W 133 St,-73.941878,True,3927,[],classic,40.81296,71,27,10030,198
St Nicholas Ave & W 134 St,-73.948222,True,3934,[],classic,40.816234,71,27,10030,198
Edgecombe Ave & W 145 St,-73.94386,True,3959,[],classic,40.823498,71,31,10030,198
Adam Clayton Powell Blvd & W 138 St,-73.9422959089279,True,3999,[],classic,40.81695971032464,71,23,10030,198
Edgecombe Ave & W 141 St,-73.945144,True,4004,[],classic,40.820681,71,21,10030,198
Adam Clayton Powell Blvd & W 141 St,-73.941057,True,4023,[],classic,40.819241,71,24,10030,198
Lenox Ave & W 140 St,-73.938787,True,4326,[],classic,40.817245,71,23,10030,198
Frederick Douglass Blvd & W 139 St,-73.94476890563965,True,4427,[],classic,40.81900581806558,71,22,10030,198
Broadway & W 133 St,-73.956156,True,3942,[],classic,40.8190344,71,21,10031,387
Amsterdam Ave & W 136 St,-73.951819,True,3945,[],classic,40.819746,71,21,10031,387
Hamilton Pl & W 140 St,-73.951346,True,3960,[],classic,40.822756,71,21,10031,387
W 146 St & Broadway,-73.949738,True,3967,[],classic,40.826969,71,30,10031,387
St Nicholas Ave & W 150 St,-73.942722,True,3973,[],classic,40.827212,71,26,10031,387
Amsterdam Ave & W 152 St,-73.944279,True,3980,[],classic,40.829523,71,20,10031,387
W 140 St & Riverside Dr,-73.954743,True,3984,[],classic,40.824013,71,23,10031,387
Riverside Dr & W 138 St,-73.955857,True,4007,[],classic,40.823168,71,30,10031,387
Broadway & W 142 St,-73.951947,True,4008,[],classic,40.824686,71,23,10031,387
Riverside Dr & W 145 St,-73.951989,True,4009,[],classic,40.827305,71,35,10031,387
W 145 St & Amsterdam Ave,-73.947257,True,4010,[],classic,40.825244,71,0,10031,387
W 148 St & Amsterdam Ave,-73.945909,True,4012,[],classic,40.827075,71,23,10031,387
Convent Ave & W 151 St,-73.942924,True,4013,[],classic,40.82831,71,24,10031,387
Riverside Dr & W 148 St,-73.950426,True,4014,[],classic,40.829114,71,22,10031,387
Hamilton Pl & W 138 St,-73.952761,True,4034,[],classic,40.821728,71,27,10031,387
Broadway & W 153 St,-73.946665,True,4035,[],classic,40.831327,71,20,10031,387
Riverside Dr & W 153 St,-73.949702,True,4247,[],classic,40.832164,71,21,10031,387
St Nicholas Ave & W 137 St,-73.947568,True,3946,[],classic,40.818477,71,21,10032,512
St. Nicholas Terrace & Convent Ave,-73.947868,True,4005,[],classic,40.821294,71,24,10032,512
St. Nicholas Ave & W 155 St,-73.941323,True,4027,[],classic,40.830663,71,23,10032,512
Amsterdam Ave & W 156 St,-73.942386,True,4047,[],classic,40.832081,71,27,10032,512
St. Nicholas Ave & W 157 St,-73.94102,True,4048,[],classic,40.832314,71,20,10032,512
W 159 St & Edgecombe Ave,-73.939326,True,4050,[],classic,40.833303,71,21,10032,512
W 160 St & St. Nicholas Ave,-73.939865,True,4051,[],classic,40.834468,71,26,10032,512
Amsterdam Ave & W 162 St,-73.939789,True,4052,[],classic,40.83618,71,27,10032,512
W 163 St & Edgecombe Ave,-73.937496,True,4053,[],classic,40.835798,71,19,10032,512
W 163 St & Riverside Dr,-73.945446,True,4054,[],classic,40.839278,71,19,10032,512
W 165 St & Fort Washington Ave,-73.942939,True,4055,[],classic,40.84004,71,27,10032,512
Broadway & W 165 St,-73.941409,True,4056,[],classic,40.839137,71,24,10032,512
Amsterdam Ave & W 167 St,-73.937044,True,4057,[],classic,40.839443,71,23,10032,512
W 171 St & St. Nicholas Ave,-73.938631,True,4059,[],classic,40.842941,71,31,10032,512
Fort Washington Ave & W 173 St,-73.940493,True,4061,[],classic,40.84522,71,24,10032,512
Cabrini Blvd & W 177 St,-73.941343,True,4069,[],classic,40.848282,71,24,10032,512
Broadway & W 160 St,-73.9434,True,4071,[],classic,40.835775,71,22,10032,512
Broadway & W 155 St,-73.94592,True,4188,[],classic,40.83299,71,31,10032,512
Broadway & W 168 St,-73.93972098827362,True,4486,[],classic,40.84089603193041,71,31,10032,512
W 168th S & Fort Washington Ave,-73.9422395825386,True,4647,[],classic,40.84210236102173,71,48,10032,512
W 147 St & Adam Clayton Powell Blvd,-73.937413,True,3953,[],classic,40.82281,71,25,10039,249
Harlem River Dr & W 155 St,-73.939929,True,3981,[],classic,40.830476,71,24,10039,249
Lenox Ave & W 146 St,-73.935971,True,4001,[],classic,40.821111,71,24,10039,249
W 144 St & Adam Clayton Powell Blvd,-73.939249,True,4002,[],classic,40.820877,71,24,10039,249
W 155 St & Frederick Douglass Blvd,-73.936996,True,4015,[],classic,40.82923,71,31,10039,249
Bradhurst Ave & W 148 St,-73.941616,True,4020,[],classic,40.825125,71,22,10039,249
Macombs Pl & W 152 St,-73.937948,True,4024,[],classic,40.826406,71,33,10039,249
Edgecombe Ave & W 150 St,-73.941427,True,4025,[],classic,40.826881,71,20,10039,249
Frederick Douglass Blvd & Harlem River Dr,-73.936371,True,4028,[],classic,40.830702,71,19,10039,249
Frederick Douglass Blvd & W 145 St,-73.941928,True,4220,[],classic,40.823061,71,27,10039,249
St Mary's St & Jackson Ave,-73.91081,True,3955,[],classic,40.808891,71,19,10455,464
Melrose Ave & E 150 St,-73.917338,True,3963,[],classic,40.816827,71,31,10455,464
Brook Ave & E 148 St,-73.915368,True,3964,[],classic,40.814383,71,20,10455,464
E 149 St & Eagle Ave,-73.91186,True,3965,[],classic,40.814046,71,19,10455,464
Wales Ave & E 147 St,-73.907729,True,3966,[],classic,40.811314,71,19,10455,464
Prospect Ave & E 151 St,-73.903927,True,3968,[],classic,40.814232,71,21,10455,464
St Ann's Ave & Westchester Ave,-73.911918,True,3969,[],classic,40.815887,71,19,10455,464
Melrose Ave & E 154 St,-73.916071,True,3970,[],classic,40.819609,71,19,10455,464
E 156 & Brook Ave,-73.912411,True,3976,[],classic,40.819823,71,19,10455,464
Prospect Ave & Longwood Ave,-73.90202,True,3977,[],classic,40.81899,71,29,10455,464
Bergen Ave & E 152 St,-73.914737,True,3982,[],classic,40.817166,71,21,10455,464
Westchester Ave & E 156 St,-73.905203,True,3983,[],classic,40.817802,71,23,10455,464
E 149 St & Jackson Ave,-73.909235,True,3987,[],classic,40.813135,71,23,10455,464
E 147 St & Bergen Ave,-73.91839,True,4006,[],classic,40.814673,71,25,10455,464
Westchester Ave & Jackson Ave,-73.908116,True,4011,[],classic,40.816124,71,25,10455,464
Courtlandt Ave & E 149 St,-73.919549,True,4029,[],classic,40.816402,71,23,10455,464
E 155 St & Courtlandt Ave,-73.917579,True,4032,[],classic,40.82057,71,19,10455,464
Southern Blvd & Avenue St. John,-73.901583,True,4132,[],classic,40.812769,71,19,10455,464
Beck St & Leggett Ave,-73.899939,True,4133,[],classic,40.815077,71,20,10455,464
Longwood Ave & Southern Blvd,-73.896447,True,4134,[],classic,40.816343,71,24,10455,464
Southern Blvd & E 149 St,-73.904192,True,4206,[],classic,40.811892,71,27,10455,464
Cauldwell Ave & E 161 St,-73.907521,True,3978,[],classic,40.82188,71,18,10456,626
E 160 St & Tinton Ave,-73.903944,True,3985,[],classic,40.820302,71,22,10456,626
Cauldwell Ave & E 158 St,-73.908351,True,4031,[],classic,40.81989,71,19,10456,626
Sheridan Ave & E 168 St,-73.9154,True,4084,[],classic,40.835334,71,22,10456,626
Grand Concourse & E 171 St,-73.913004,True,4085,[],classic,40.839549,71,25,10456,626
Grand Concourse & E 167 St,-73.917641,True,4096,[],classic,40.834263,71,30,10456,626
E 169 St & Webster Ave,-73.908863,True,4099,[],classic,40.834015,71,21,10456,626
E 170 St & Clay Ave,-73.908345,True,4107,[],classic,40.837213,71,24,10456,626
Morris Ave & McClellan St,-73.9149,True,4130,[],classic,40.831584,71,22,10456,626
3 Ave & Franklin Ave,-73.907451,True,4138,[],classic,40.82696,71,19,10456,626
Tinton Ave & E 165 St,-73.90242,True,4139,[],classic,40.824796,71,19,10456,626
E 167 St & Franklin Ave,-73.90521,True,4149,[],classic,40.82895,71,20,10456,626
3 Ave & E 169 St,-73.905158,True,4151,[],classic,40.832678,71,21,10456,626
Fulton Ave & E 168 St,-73.904556,True,4152,[],classic,40.830471,71,21,10456,626
Fulton Ave & St. Paul's Pl,-73.90153,True,4156,[],classic,40.83545,71,19,10456,626
E 165 St & Clay Ave,-73.91288,True,4165,[],classic,40.82809,71,19,10456,626
Mount Eden Pkwy & Eastburn Ave,-73.908544,True,4168,[],classic,40.842675,71,19,10456,626
Webster Ave & E 166 St,-73.911259,True,4170,[],classic,40.828975,71,19,10456,626
Boston Rd & E 167 St,-73.903719,True,4171,[],classic,40.828199,71,21,10456,626
Washington Ave & E 167 St,-73.907618,True,4172,[],classic,40.829896,71,19,10456,626
3 Ave & E 170 St,-73.903743,True,4174,[],classic,40.834857,71,21,10456,626
E 171 St & Webster Ave,-73.905838,True,4175,[],classic,40.838379,71,20,10456,626
Grant Ave & E 169 St,-73.913741,True,4189,[],classic,40.83579,71,19,10456,626
E 167 St & Clay Ave,-73.91125,True,4195,[],classic,40.83094,71,30,10456,626
Sherman Ave & E 166 St,-73.91744792461395,True,4207,[],classic,40.83130549267296,71,19,10456,626
Grand Concourse & E 166 St,-73.91956,True,4210,[],classic,40.83196,71,24,10456,626
Franklin Ave & E 169 St,-73.90208,True,4212,[],classic,40.83171,71,19,10456,626
E 170 St & Webster Ave,-73.90730146322765,True,4249,[],classic,40.83617913677475,71,25,10456,626
E 170 St & Sheridan Ave,-73.912604,True,4308,[],classic,40.838315,71,30,10456,626
Motorgate,-73.9477213,True,4036,[],classic,40.7639089,71,36,10044,111
Roosevelt Island Tramway,-73.9536,True,4037,[],classic,40.757284,71,39,10044,111
Southpoint Park,-73.95865201950072,True,4038,[],classic,40.75370225419114,71,36,10044,111
Amsterdam Ave & W 172 St,-73.935111,True,4060,[],classic,40.842173,71,23,10033,358
Amsterdam Ave & W 175 St,-73.933651,True,4062,[],classic,40.844044,71,23,10033,358
Wadsworth Ave & W 175 St,-73.937648,True,4063,[],classic,40.846052,71,24,10033,358
Wadsworth Ave & W 179 St,-73.936064,True,4065,[],classic,40.848467,71,35,10033,358
Audobon Ave & W 179 St,-73.933291,True,4066,[],classic,40.847305,71,23,10033,358
Amsterdam Ave & W 180 St,-73.931205,True,4067,[],classic,40.847396,71,23,10033,358
Fort Washington Ave & W 183 St,-73.937854,True,4068,[],classic,40.852252,71,30,10033,358
W 180 St & Ft Washington Ave,-73.938423,True,4070,[],classic,40.849972,71,24,10033,358
Edgecombe Ave & W 167 St,-73.936085,True,4074,[],classic,40.838191,71,23,10033,358
Amsterdam Ave & W 183 St,-73.93022,True,4109,[],classic,40.84925,71,21,10033,358
W 181 St & Riverside Dr,-73.94186,True,4193,[],classic,40.85168,71,21,10033,358
Broadway & W 185 St,-73.93441,True,4437,[],classic,40.852538,71,21,10033,358
W 186 St & St. Nicholas Ave,-73.931308,True,4438,[],classic,40.852253,71,26,10033,358
Amsterdam Ave & W 186 St,-73.928808,True,4471,[],classic,40.851113,71,21,10033,358
Pinehurst Ave & W 187 St,-73.937878,True,4487,[],classic,40.855331,71,20,10033,358
W 51 St & Rockefeller Plaza,-73.97811613976955,True,4073,[],classic,40.75973805251143,71,35,10104,35
Jerome Ave & E 164 St,-73.926226,True,4080,[],classic,40.831444,71,21,10452,549
Gerard Ave & E 165 St,-73.922394,True,4081,[],classic,40.83173,71,21,10452,549
Gerard Ave & McClellan St,-73.92112,True,4082,[],classic,40.833909,71,30,10452,549
Walton Ave & E 168 St,-73.918316,True,4083,[],classic,40.83649,71,20,10452,549
Inwood Ave & W 170 St,-73.919228,True,4086,[],classic,40.840536,71,21,10452,549
W 170 St & University Ave,-73.926075,True,4087,[],classic,40.84207,71,22,10452,549
Nelson Ave & W 172 St,-73.920999,True,4088,[],classic,40.843965,71,20,10452,549
Jerome Ave & Ogden Ave,-73.931015,True,4091,[],classic,40.829797,71,21,10452,549
Jerome Ave & Anderson Ave,-73.928747,True,4092,[],classic,40.830179,71,19,10452,549
E 165 St & Jerome Ave,-73.925101,True,4095,[],classic,40.83263,71,0,10452,549
Shakespeare Ave & W 169 St,-73.922423,True,4098,[],classic,40.839312,71,20,10452,549
Grand Concourse & E 164 St,-73.921461,True,4102,[],classic,40.829608,71,22,10452,549
Ogden Ave & W 165 St,-73.928381,True,4103,[],classic,40.834457,71,19,10452,549
Ogden Ave & W 164 St,-73.929372,True,4106,[],classic,40.832812,71,19,10452,549
Gerard Ave & E 164 St,-73.923391,True,4116,[],classic,40.830262,71,19,10452,549
Ogden Ave & Merriam Ave,-73.925961,True,4127,[],classic,40.839142,71,19,10452,549
Anderson Ave & W 164 St,-73.927421,True,4129,[],classic,40.832057,71,19,10452,549
Goble Pl & Macombs Rd,-73.917256,True,4131,[],classic,40.844075,71,19,10452,549
Walton Ave & E 171 St,-73.915073,True,4190,[],classic,40.840683,71,19,10452,549
Plaza Dr & W 170 St,-73.917946,True,4194,[],classic,40.840484,71,30,10452,549
River Ave & McClellan St,-73.92243,True,4199,[],classic,40.83406,71,21,10452,549
University Ave & W 168 St,-73.927034,True,4209,[],classic,40.838706,71,18,10452,549
Nelson Ave & 167 St,-73.92608866095543,True,4251,[],classic,40.83670566862804,71,21,10452,549
Featherbed Ln & Nelson Ave,-73.919637,True,4490,[],classic,40.846011,71,22,10452,549
Featherbed Ln & Jerome Ave,-73.914311,True,4492,[],classic,40.845505,71,21,10452,549
Macombs Rd & Featherbed Ln,-73.91722,True,4612,[],classic,40.84552,71,19,10452,549
Grand Concourse & E 161 St,-73.9227358996868,True,4635,[],classic,40.82713380423556,71,27,10452,549
Clay Ave & E 173 St,-73.904867,True,4108,[],classic,40.843264,71,19,10457,460
College Ave & E 170 St,-73.910489,True,4128,[],classic,40.837576,71,24,10457,460
3 Ave & E 172 St,-73.900277,True,4159,[],classic,40.839586,71,19,10457,460
Washington Ave & E 174 St,-73.900216,True,4160,[],classic,40.843079,71,19,10457,460
3 Ave & E 174 St,-73.8985,True,4161,[],classic,40.84224,71,35,10457,460
Grand Concourse & East Mount Eden Ave,-73.91172,True,4167,[],classic,40.84301,71,19,10457,460
Morris Ave & E 171 St,-73.9109,True,4169,[],classic,40.83899,71,21,10457,460
E 171 St & 3 Ave,-73.902185,True,4176,[],classic,40.837119,71,24,10457,460
Fulton Ave & E 172 St,-73.899047,True,4183,[],classic,40.839229,71,19,10457,460
Clay Ave & Claremont Pkwy,-73.90549,True,4201,[],classic,40.83999,71,21,10457,460
Crotona Park North & Prospect Ave,-73.892317,True,4205,[],classic,40.841092,71,19,10457,460
Sheridan Ave & E 172 St,-73.911479,True,4229,[],classic,40.840494,71,24,10457,460
Anthony Ave & E 175 St,-73.903869,True,4493,[],classic,40.846465,71,19,10457,460
Anthony Ave & E Tremont Ave,-73.903178,True,4498,[],classic,40.848793,71,20,10457,460
E Tremont Ave & E 176 St,-73.901883,True,4508,[],classic,40.847798,71,21,10457,460
Webster Ave & Ford St,-73.89615,True,4550,[],classic,40.85556,71,23,10457,460
Weeks Ave & E 175 St,-73.907342,True,4584,[],classic,40.846879,71,22,10457,460
E Burnside Ave & Ryer Ave,-73.901318,True,4601,[],classic,40.850535,71,21,10457,460
Grand Concourse & E 175 St,-73.90931278467178,True,4622,[],classic,40.84627592921954,71,24,10457,460
Ryer Ave & E 182 St,-73.89956,True,4624,[],classic,40.8558,71,26,10457,460
Valentine Ave & E 181 St,-73.89932222664356,True,4739,[],classic,40.854123869116,71,21,10457,460
Westchester Ave & Longwood Ave,-73.901311,True,4135,[],classic,40.819701,71,23,10459,450
E 163 St & Union Ave,-73.901824,True,4140,[],classic,40.822545,71,24,10459,450
Southern Blvd & Tiffany St,-73.894143,True,4141,[],classic,40.818185,71,20,10459,450
E 163 St & Tiffany St,-73.895069,True,4147,[],classic,40.821075,71,19,10459,450
Intervale Ave & Westchester Ave,-73.896752,True,4148,[],classic,40.821967,71,15,10459,450
E 165 St & Fox St,-73.894025,True,4153,[],classic,40.82394,71,27,10459,450
E 169 St & Fox St,-73.893721,True,4155,[],classic,40.827184,71,19,10459,450
Boston Rd & Prospect Ave,-73.896599,True,4157,[],classic,40.833246,71,19,10459,450
Freeman St & Reverend James A Polite Ave,-73.894717,True,4158,[],classic,40.830529,71,19,10459,450
Longfellow Ave & E 165 St,-73.887729,True,4173,[],classic,40.825322,71,21,10459,450
Prospect Ave & Jennings St,-73.896853,True,4177,[],classic,40.831762,71,20,10459,450
Freeman St & Southern Blvd,-73.892103,True,4179,[],classic,40.830051,71,23,10459,450
Louis Nine Blvd & Intervale Ave,-73.892686,True,4182,[],classic,40.831998,71,19,10459,450
Intervale Ave & Kelly St,-73.896372,True,4191,[],classic,40.827301,71,20,10459,450
Prospect Ave & E 167 St,-73.898751,True,4192,[],classic,40.826303,71,19,10459,450
Dawson St & Intervale Ave,-73.897263,True,4202,[],classic,40.819999,71,19,10459,450
Westchester Ave & Southern Blvd,-73.891677,True,4203,[],classic,40.824956,71,21,10459,450
E 167 St & Bryant Ave,-73.888719,True,4204,[],classic,40.826706,71,20,10459,450
Union Ave & E 169 St,-73.898802,True,4211,[],classic,40.82995,71,19,10459,450
Bruckner Blvd & Bryant Ave,-73.888546,True,4245,[],classic,40.821952,71,24,10459,450
Home St & Westchester Ave,-73.886659,True,4252,[],classic,40.827629,71,21,10459,450
Rogers Pl & E 165 St,-73.8974027708582,True,4652,[],classic,40.82388366441761,71,19,10459,450
Barry St & Tiffany St,-73.891559,True,4142,[],classic,40.816126,71,19,10474,130
Hunts Point Ave & Bryant Ave,-73.8855,True,4143,[],classic,40.813991,71,21,10474,130
Lafayette Ave & Hunts Point Ave,-73.888161,True,4144,[],classic,40.816567,71,22,10474,130
Garrison Ave & Manida St,-73.890247,True,4146,[],classic,40.818743,71,30,10474,130
Faile St & Garrison Ave,-73.888271,True,4154,[],classic,40.820578,71,19,10474,130
Seneca Ave & Irvine St,-73.88862490653992,True,4250,[],classic,40.81872569990116,71,19,10474,130
Southern Blvd & E 172 St,-73.88955,True,4162,[],classic,40.834124,71,19,10460,200
Boone Ave & E 172 St,-73.885272,True,4163,[],classic,40.832649,71,19,10460,200
E 174 St & Longfellow Ave,-73.884308,True,4164,[],classic,40.836274,71,20,10460,200
Hoe Ave & Jennings St,-73.889686,True,4181,[],classic,40.832171,71,20,10460,200
Southern Blvd & E 174 St,-73.887931,True,4184,[],classic,40.836733,71,27,10460,200
Southern Blvd & E 175 St,-73.886445,True,4185,[],classic,40.839335,71,19,10460,200
Wilkins Ave & Crotona Park E,-73.895133,True,4213,[],classic,40.835302,71,19,10460,200
Crotona Park East & E 173 St,-73.890413,True,4227,[],classic,40.837037,71,19,10460,200
Waterloo Pl & Crotona Park East,-73.888587,True,4228,[],classic,40.839194,71,19,10460,200
Charlotte St & Boston Rd,-73.8931428,True,4230,[],classic,40.8358771,71,19,10460,200
E 174 St & Walton Ave,-73.912042,True,4200,[],classic,40.844811,71,27,10453,584
Townsend Ave & E 175 St,-73.911359,True,4494,[],classic,40.84741,71,19,10453,584
Macombs Rd & W 175 St,-73.916082,True,4495,[],classic,40.848177,71,20,10453,584
Jerome Ave & W 177 St,-73.910765,True,4496,[],classic,40.850121,71,29,10453,584
E Tremont Ave & Jerome Ave,-73.908964,True,4497,[],classic,40.851747,71,20,10453,584
W Burnside Ave & University Ave,-73.912498,True,4500,[],classic,40.853686,71,23,10453,584
University Ave & Brandt Pl,-73.918389,True,4505,[],classic,40.848354,71,23,10453,584
W Tremont Ave & Grand Ave,-73.912785,True,4506,[],classic,40.850036,71,21,10453,584
Davidson Ave & W Burnside Ave,-73.908731,True,4509,[],classic,40.853646,71,32,10453,584
University Ave & W Burnside Ave,-73.910751,True,4510,[],classic,40.85501,71,24,10453,584
Grand Ave & W 181 St,-73.907302,True,4511,[],classic,40.856302,71,19,10453,584
Jerome Ave & E 181 St,-73.905528,True,4512,[],classic,40.855653,71,19,10453,584
W Tremont Ave & Montgomery Ave,-73.916418,True,4515,[],classic,40.851788,71,21,10453,584
Sedgwick Ave & W Burnside Ave,-73.916661,True,4516,[],classic,40.854947,71,17,10453,584
Sedgwick Ave & W Tremont Ave,-73.918214,True,4541,[],classic,40.853157,71,19,10453,584
Andrews Ave S & W 179 St,-73.91278,True,4542,[],classic,40.855156,71,20,10453,584
Popham Ave & W 174 St,-73.922079,True,4551,[],classic,40.847746,71,20,10453,584
Andrew Ave N & Hall of Fame Tce,-73.91008,True,4553,[],classic,40.85834,71,19,10453,584
W 176 St & Montgomery Ave,-73.919205,True,4570,[],classic,40.849629,71,19,10453,584
University Ave & Macombs Rd,-73.9161206,True,4571,[],classic,40.8496401,71,23,10453,584
Morris Ave & E Burnside Ave,-73.90546,True,4585,[],classic,40.85322,71,21,10453,584
Creston Ave & E 181 St,-73.90281,True,4613,[],classic,40.8549,71,23,10453,584
Buchanan Pl & Grand Ave,-73.90626,True,4623,[],classic,40.85834,71,21,10453,584
Sedgwick Ave & Hall of Fame Tce,-73.913303,True,4631,[],classic,40.859532,71,19,10453,584
Creston Ave & E 178 St,-73.906469,True,4639,[],classic,40.850885,71,28,10453,584
W Tremont Ave & Matthewson Rd,-73.920765,True,4670,[],classic,40.853827,71,19,10453,584
E 182 St & Morris Ave,-73.90265285968779,True,4755,[],classic,40.85670801831255,71,19,10453,584
E 44 St & Lexington Ave,-73.974996,True,4240,[],classic,40.752643,71,33,10174,33
50 St & 30 Ave,-73.907107,True,4266,[],classic,40.760083,71,23,11377,207
Bulova Ave & Brooklyn Queens Expressway W,-73.902534,True,4267,[],classic,40.762507,71,19,11377,207
Broadway & 51 St,-73.908906,True,4269,[],classic,40.754164,71,27,11377,207
62 St & Northern Blvd,-73.900318,True,4270,[],classic,40.754176,71,27,11377,207
31 Ave & 61 St,-73.901614,True,4271,[],classic,40.757525,71,21,11377,207
58 St & 32 Ave,-73.903427,True,4286,[],classic,40.75574,71,19,11377,207
Broadway & 49 St,-73.911517,True,4318,[],classic,40.755389,71,25,11377,207
31 Ave & 57 St,-73.904726,True,4319,[],classic,40.757357,71,23,11377,207
51 St & Hobart St,-73.90769943594933,True,4644,[],classic,40.75767234025041,71,23,11377,207
Albany St & Greenwich St,-74.013247,True,4278,[],classic,40.709267,71,46,10006,134
Broadway & Morris St,-74.01321887969969,True,4689,[],classic,40.705945132708806,71,47,10006,134
Greenwich St & Rector St,-74.0135595202446,True,4690,[],classic,40.70806582380646,71,41,10006,134
Hazen St & 20 Ave,-73.895166,True,4292,[],classic,40.772092,71,23,11370,126
Ditmars Blvd & 76 St,-73.893531,True,4293,[],classic,40.768442,71,19,11370,126
76 St & 21 Ave,-73.893675,True,4294,[],classic,40.77028,71,21,11370,126
Ditmars Blvd & 79 St,-73.890745,True,4295,[],classic,40.768728,71,25,11370,126
Ditmars Blvd & 73 St,-73.896293,True,4324,[],classic,40.76817,71,19,11370,126
21 Ave & 80 St,-73.889914,True,4325,[],classic,40.770888,71,19,11370,126
7 Ave & 20 St,-73.98854,True,4349,[],classic,40.659053,71,20,11218,602
McDonald Ave & Vanderbilt St,-73.981231,True,4352,[],classic,40.651654,71,21,11218,602
Prospect Ave & Vanderbilt St,-73.976291,True,4353,[],classic,40.653368,71,19,11218,602
Greenwood Ave & E 4 St,-73.977739,True,4356,[],classic,40.650739,71,21,11218,602
Ft. Hamilton Pkwy & E 2 St,-73.979342,True,4357,[],classic,40.648005,71,19,11218,602
Ft. Hamilton Pkwy & E 5 St,-73.97673,True,4358,[],classic,40.649037,71,23,11218,602
Caton Ave & Argyle Rd,-73.967829,True,4360,[],classic,40.649681,71,21,11218,602
Caton Ave & E 10 St,-73.97058,True,4361,[],classic,40.648481,71,30,11218,602
7 Ave & 22 St,-73.989605,True,4362,[],classic,40.658029,71,25,11218,602
E 8 St & Caton Ave,-73.972432,True,4363,[],classic,40.648055,71,30,11218,602
Caton Ave & E 7 St,-73.973663,True,4364,[],classic,40.647718,71,20,11218,602
E 3 St & Church Ave,-73.977433,True,4365,[],classic,40.643817,71,21,11218,602
Albemarle Rd & McDonald Ave,-73.979681,True,4366,[],classic,40.645074,71,20,11218,602
Chester Ave & 12 Ave,-73.984276,True,4367,[],classic,40.644367,71,21,11218,602
12 Ave & 36 St,-73.986418,True,4368,[],classic,40.643546,71,21,11218,602
Church Ave & McDonald Ave,-73.979239,True,4376,[],classic,40.642809,71,29,11218,602
Dahill Rd & 12 Ave,-73.980963,True,4377,[],classic,40.646037,71,22,11218,602
Church Ave & Story St,-73.981073,True,4378,[],classic,40.642031,71,23,11218,602
24 St & 5 Ave,-73.995068,True,4414,[],classic,40.659555,71,19,11218,602
Prospect Park SW & Greenwood Ave,-73.972573,True,4429,[],classic,40.652563,71,30,11218,602
Park Cir & East Dr,-73.972212,True,4436,[],classic,40.651566,71,29,11218,602
Ocean Pkwy & Church Ave,-73.97451460361481,True,4449,[],classic,40.644718957635746,71,25,11218,602
Prospect Park SW & Vanderbilt St,-73.973217,True,4483,[],classic,40.65482,71,37,11218,602
Prospect Park SW & 16 St,-73.974165,True,4485,[],classic,40.657265,71,33,11218,602
Prospect Ave & Greenwood Ave,-73.975988,True,4664,[],classic,40.651745,71,23,11218,602
Parade Pl & Crooke Ave,-73.965248,True,4359,[],classic,40.651847,71,30,11226,30
48 St & 2 Ave,-74.015606,True,4374,[],classic,40.650176,71,19,11220,745
53 St & 5 Ave,-74.011884,True,4384,[],classic,40.643371,71,30,11220,745
53 St & 4 Ave,-74.014531,True,4385,[],classic,40.644862,71,25,11220,745
57 St & 1 Ave,-74.023087,True,4386,[],classic,40.646377,71,27,11220,745
58 St & 2 Ave,-74.021506,True,4387,[],classic,40.644512,71,35,11220,745
47 St & 3 Ave,-74.012384,True,4389,[],classic,40.649143,71,23,11220,745
46 St & 6 Ave,-74.005708,True,4390,[],classic,40.645921,71,21,11220,745
52 St & 6 Ave,-74.009441,True,4391,[],classic,40.642703,71,19,11220,745
55 St & 5 Ave,-74.013318,True,4393,[],classic,40.642408,71,28,11220,745
6 Ave & 55 St,-74.010996,True,4394,[],classic,40.640831,71,19,11220,745
6 Ave & 60 St,-74.013821,True,4395,[],classic,40.638196,71,22,11220,745
62 St & 4 Ave,-74.019776,True,4396,[],classic,40.639859,71,19,11220,745
64 St & 3 Ave,-74.02324,True,4397,[],classic,40.639978,71,35,11220,745
65 St & 2 Ave,-74.02564,True,4398,[],classic,40.640493,71,21,11220,745
5 Ave & 66 St,-74.020005,True,4399,[],classic,40.635679,71,20,11220,745
46 St & 7 Ave,-74.003754,True,4400,[],classic,40.644743,71,21,11220,745
55 St & 7 Ave,-74.008957,True,4401,[],classic,40.639673,71,25,11220,745
59 St & 4 Ave,-74.017651,True,4403,[],classic,40.641269,71,35,11220,745
3 Ave & Wakeman Pl,-74.024714,True,4404,[],classic,40.638246,71,27,11220,745
48 St & 5 Ave,-74.009271,True,4411,[],classic,40.646351,71,27,11220,745
53 St & 2 Ave,-74.018846,True,4412,[],classic,40.64744,71,30,11220,745
67 St & Erik Pl,-74.016562,True,4417,[],classic,40.633385,71,25,11220,745
57 St & 4 Ave,-74.016866,True,4423,[],classic,40.642622,71,22,11220,745
4 Ave & Shore Road Dr,-74.022141,True,4424,[],classic,40.637033,71,20,11220,745
63 St & 5 Ave,-74.01782,True,4430,[],classic,40.63766,71,24,11220,745
Wakeman Pl & Ridge Blvd,-74.026823,True,4450,[],classic,40.639421,71,19,11220,745
59 St & 5 Ave,-74.015726,True,4484,[],classic,40.640125,71,30,11220,745
45 St & 4 Ave,-74.009486,True,4489,[],classic,40.649145,71,24,11220,745
58 St & Pier 4,-74.026081,True,4548,[],classic,40.646475,71,31,11220,745
50 St & 7 Ave,-74.006055,True,4732,[],classic,40.642501,71,22,11220,745
Ft. Washington Ave & W 190 St,-73.935662,True,4440,[],classic,40.856906,71,19,10040,259
Broadway & W 192 St,-73.932173,True,4441,[],classic,40.857994,71,23,10040,259
Nagle Ave & Thayer St,-73.925591,True,4442,[],classic,40.861382,71,34,10040,259
W 190 St & Broadway,-73.93296986818314,True,4451,[],classic,40.85648733523576,71,21,10040,259
Nagle Ave & Ellwood St,-73.928489,True,4456,[],classic,40.86012,71,21,10040,259
Broadway & Ellwood St,-73.929719,True,4457,[],classic,40.862058,71,19,10040,259
Dyckman St & 10 Ave,-73.9230939745903,True,4458,[],classic,40.85890447538412,71,19,10040,259
Sherman Ave & Thayer St,-73.926994,True,4459,[],classic,40.863124,71,21,10040,259
Dyckman St & Staff St,-73.931537,True,4461,[],classic,40.868846,71,19,10040,259
Margaret Corbin Plz & Ft Washington Ave,-73.933872,True,4472,[],classic,40.859166,71,25,10040,259
Riverside Dr & Broadway,-73.92791,True,4678,[],classic,40.865364,71,0,10040,259
Audubon Ave & W 192 St,-73.92708241939545,True,4743,[],classic,40.85589030603889,71,21,10040,259
Amsterdam Ave & W 189 St,-73.92715752124786,True,4873,[],classic,40.85318758861975,71,17,10040,259
Seaman Ave & Beak St,-73.926363,True,4443,[],classic,40.867505,71,21,10034,387
Academy St & Nagle Ave,-73.922661,True,4444,[],classic,40.862562,71,20,10034,387
10 Ave & W 204 St,-73.92006,True,4445,[],classic,40.862638,71,20,10034,387
W 204 St & Nagle Ave,-73.920827,True,4446,[],classic,40.863211,71,20,10034,387
Isham St & Broadway,-73.919685,True,4447,[],classic,40.86788,71,29,10034,387
9 Ave & W 219 St,-73.911503,True,4448,[],classic,40.871094,71,19,10034,387
Dyckman St & Henshaw St,-73.92936,True,4460,[],classic,40.867357,71,19,10034,387
10 Ave & W 202 St,-73.921417593956,True,4462,[],classic,40.861281970750994,71,23,10034,387
W 204 St & Vermilyea Ave,-73.922648,True,4463,[],classic,40.866141,71,22,10034,387
9 Ave & W 206 St,-73.9175833761692,True,4464,[],classic,40.86308937813274,71,24,10034,387
Seaman Ave & Isham St,-73.92076313495636,True,4465,[],classic,40.869898661940454,71,23,10034,387
10 Ave & W 215 St,-73.91519755125046,True,4467,[],classic,40.86932465640094,71,21,10034,387
W 218 St & Indian Rd,-73.91837194561958,True,4468,[],classic,40.873054589370895,71,21,10034,387
Broadway & W 220 St,-73.912807,True,4473,[],classic,40.872412,71,19,10034,387
10 Ave & W 207 St,-73.918598,True,4474,[],classic,40.864632,71,39,10034,387
W 218 St & Broadway,-73.914318,True,4502,[],classic,40.87139,71,27,10034,387
W 211 St & 10 Ave,-73.9172950387001,True,4750,[],classic,40.86709406268147,71,20,10034,387
Walton Ave & E 183 St,-73.90266,True,4501,[],classic,40.858472,71,29,10468,613
E 188 St & Creston Ave,-73.898589,True,4544,[],classic,40.861669,71,33,10468,613
Cedar Ave & W Fordham Rd,-73.91219,True,4554,[],classic,40.86156,71,24,10468,613
W Fordham Rd & Loring Pl N,-73.90741,True,4555,[],classic,40.86295,71,25,10468,613
Grand Ave & W Fordham Rd,-73.90316,True,4556,[],classic,40.86288,71,22,10468,613
Jerome Ave & W Fordham Rd,-73.90108,True,4557,[],classic,40.86294,71,24,10468,613
Jerome Ave & W 193 St,-73.89794,True,4559,[],classic,40.86659,71,18,10468,613
Bedford Park Blvd & Paul Ave,-73.89186,True,4565,[],classic,40.87444,71,24,10468,613
Morris Ave & E 184 St,-73.90079,True,4573,[],classic,40.86008,71,23,10468,613
Goulden Ave & Bedford Park Blvd W,-73.89533,True,4576,[],classic,40.87387,71,19,10468,613
Jerome Ave & Bedford Park Blvd E,-73.88971,True,4577,[],classic,40.87307,71,25,10468,613
Goulden Ave & W 205 St,-73.89192,True,4580,[],classic,40.87812,71,19,10468,613
W Mosholu Pkwy S & Sedgwick Ave,-73.88702,True,4583,[],classic,40.88226,71,37,10468,613
Goulden Ave & W 197 St,-73.89714,True,4599,[],classic,40.87156,71,20,10468,613
Bailey Ave & Sedgwick Ave,-73.90857,True,4603,[],classic,40.86571,71,20,10468,613
Jerome Ave & W 184 St,-73.902541,True,4604,[],classic,40.860814,71,20,10468,613
Jerome Ave & W 195 St,-73.89657,True,4607,[],classic,40.86874,71,32,10468,613
Grand Concourse & E 205 St,-73.8863864831,True,4608,[],classic,40.875531,71,19,10468,613
Paul Ave & W 205 St,-73.88943,True,4609,[],classic,40.87704,71,19,10468,613
Paul Ave & Mosholu Pkwy,-73.8860653648,True,4610,[],classic,40.8802945,71,19,10468,613
Loring Pl North & W 183 St,-73.9093359997,True,4626,[],classic,40.8604244,71,20,10468,613
Aqueduct Ave & North St,-73.9057169936,True,4627,[],classic,40.8604787,71,20,10468,613
Aqueduct Ave & W 190 St,-73.9024238,True,4628,[],classic,40.8649213,71,20,10468,613
Webb Ave & W 190 St,-73.904254892,True,4629,[],classic,40.8660052,71,22,10468,613
W 225 St & Exterior St,-73.906646,True,4630,[],classic,40.873265,71,19,10468,613
Jerome Ave & E 198 St,-73.89289632439613,True,4634,[],classic,40.87144520687118,71,20,10468,613
W 192 St & University Ave,-73.901942,True,4636,[],classic,40.866899,71,21,10468,613
Tiebout Ave & E 184 St,-73.89637,True,4513,[],classic,40.858498,71,18,10458,485
Tiebout Ave & E Fordham Road,-73.894831,True,4545,[],classic,40.861915,71,31,10458,485
Grand Concourse & E 192 St,-73.89522,True,4560,[],classic,40.86448,71,0,10458,485
Bainbridge Ave & E 193 St,-73.89246,True,4561,[],classic,40.86389,71,27,10458,485
Grand Concourse & E 196 St,-73.89286,True,4562,[],classic,40.86767,71,25,10458,485
Bainbridge Ave & E 196 St,-73.89042,True,4563,[],classic,40.86648,71,20,10458,485
Grand Concourse & E 197 St,-73.89148,True,4564,[],classic,40.86945,71,21,10458,485
Bainbridge Ave & Bedford Park Blvd,-73.88565,True,4566,[],classic,40.87002,71,19,10458,485
Decatur Ave & Bedford Park Blvd,-73.88412,True,4567,[],classic,40.86813,71,20,10458,485
Botanical Sq & Webster Ave,-73.88145,True,4568,[],classic,40.86814,71,32,10458,485
E 201 St & Briggs Ave,-73.88459,True,4569,[],classic,40.87207,71,19,10458,485
Valentine Ave & E 183 St,-73.898237,True,4572,[],classic,40.856987,71,23,10458,485
Decatur Ave & E 197 St,-73.88807,True,4575,[],classic,40.86557,71,19,10458,485
Grand Concourse & E 199 St,-73.88839,True,4578,[],classic,40.87142,71,21,10458,485
Grand Concourse & E 203 St,-73.88661,True,4579,[],classic,40.87382,71,26,10458,485
E Mosholu Pkwy & Van Cortlandt Ave E,-73.88366,True,4581,[],classic,40.87656,71,22,10458,485
Marion Ave & Mosholu Pkwy,-73.8818756582,True,4600,[],classic,40.8704956,71,21,10458,485
E Fordham Rd & Webster Ave,-73.89105,True,4605,[],classic,40.861748,71,35,10458,485
E Mosholu Pkwy & E 204 St,-73.8833650931,True,4611,[],classic,40.8740704,71,19,10458,485
Grand Concourse & E Mosholu Pkwy S,-73.8847550291,True,4614,[],classic,40.877964,71,21,10458,485
Decatur Ave & Oliver Pl,-73.8857764,True,4637,[],classic,40.867,71,23,10458,485
Bainbridge Ave & E 198 St,-73.8884559781,True,4638,[],classic,40.8684871,71,23,10458,485
Bailey Ave & W 193 St,-73.90678,True,4574,[],classic,40.87069,71,23,10463,23
Jerome Ave & E Mosholu Parkway S,-73.88534,True,4582,[],classic,40.87935,71,23,10467,23
W 35 St & 8 Ave,-73.99280458705107,True,4736,[],classic,40.752762088742045,71,39,10123,39
43 Ave & 40 St,-73.92402,True,4771,[],classic,40.74562,71,21,11104,63
39 St & Queens Blvd,-73.92601,True,4772,[],classic,40.74431,71,21,11104,63
48 Ave & 41 St,-73.92400324344635,True,4776,[],classic,40.73985995699164,71,21,11104,63
